tc_num,name_cn,name_en,dateUTC,dateCST,vmax,grade,latTC,lonTC,mslp,attr
2421,康妮,KONG-REY,202410250000,202410250800,18,热带风暴,13.3,145.3,998,analysis
2421,康妮,KONG-REY,202410250300,202410251100,18,热带风暴,14.0,144.6,998,analysis
2421,康妮,KONG-REY,202410250600,202410251400,18,热带风暴,14.7,143.4,998,analysis
2421,康妮,KONG-REY,202410250900,202410251700,18,热带风暴,15.1,142.5,998,analysis
2421,康妮,KONG-REY,202410251200,202410252000,18,热带风暴,15.3,141.7,998,analysis
2421,康妮,KONG-REY,202410251500,202410252300,18,热带风暴,15.5,140.8,998,analysis
2421,康妮,KONG-REY,202410251800,202410260200,18,热带风暴,16.4,139.6,998,analysis
2421,康妮,KONG-REY,202410252100,202410260500,18,热带风暴,17.2,138.6,998,analysis
2421,康妮,KONG-REY,202410260000,202410260800,18,热带风暴,17.0,137.7,998,analysis
2421,康妮,KONG-REY,202410260300,202410261100,18,热带风暴,16.7,137.1,998,analysis
2421,康妮,KONG-REY,202410260600,202410261400,18,热带风暴,16.7,136.7,998,analysis
2421,康妮,KONG-REY,202410260900,202410261700,18,热带风暴,16.7,135.6,998,analysis
2421,康妮,KONG-REY,202410261200,202410262000,18,热带风暴,16.7,134.7,998,analysis
2421,康妮,KONG-REY,202410261500,202410262300,18,热带风暴,16.7,134.4,998,analysis
2421,康妮,KONG-REY,202410270300,202410271100,18,热带风暴,17.1,132.7,998,forecast
2421,康妮,KONG-REY,202410271500,202410272300,20,热带风暴,17.2,131.1,995,forecast
2421,康妮,KONG-REY,202410280300,202410281100,23,热带风暴,17.3,129.5,990,forecast
2421,康妮,KONG-REY,202410281500,202410282300,25,强热带风暴,17.7,128.4,985,forecast
2421,康妮,KONG-REY,202410290300,202410291100,28,强热带风暴,18.6,127.5,982,forecast
2421,康妮,KONG-REY,202410291500,202410292300,33,台风,20.0,126.7,975,forecast
2421,康妮,KONG-REY,202410301500,202410302300,40,台风,22.4,126.2,960,forecast
2421,康妮,KONG-REY,202410311500,202410312300,45,强台风,26.0,125.9,950,forecast
2420,潭美,TRAMI,202410210900,202410211700,15,热带低压,13.1,129.6,1000,analysis
2420,潭美,TRAMI,202410211200,202410212000,15,热带低压,13.2,129.3,1000,analysis
2420,潭美,TRAMI,202410211500,202410212300,15,热带低压,13.4,128.7,1000,analysis
2420,潭美,TRAMI,202410211800,202410220200,18,热带风暴,13.5,128.1,998,analysis
2420,潭美,TRAMI,202410212100,202410220500,18,热带风暴,13.6,127.6,998,analysis
2420,潭美,TRAMI,202410220000,202410220800,18,热带风暴,13.9,127.5,998,analysis
2420,潭美,TRAMI,202410220300,202410221100,18,热带风暴,14.1,127.0,998,analysis
2420,潭美,TRAMI,202410220600,202410221400,18,热带风暴,14.3,126.5,998,analysis
2420,潭美,TRAMI,202410220900,202410221700,18,热带风暴,14.5,126.1,998,analysis
2420,潭美,TRAMI,202410221200,202410222000,18,热带风暴,14.6,125.9,998,analysis
2420,潭美,TRAMI,202410221500,202410222300,18,热带风暴,14.9,125.6,998,analysis
2420,潭美,TRAMI,202410221800,202410230200,18,热带风暴,15.0,125.4,998,analysis
2420,潭美,TRAMI,202410222100,202410230500,23,热带风暴,15.3,124.6,990,analysis
2420,潭美,TRAMI,202410230000,202410230800,23,热带风暴,15.7,124.4,990,analysis
2420,潭美,TRAMI,202410230300,202410231100,23,热带风暴,15.8,124.3,990,analysis
2420,潭美,TRAMI,202410230600,202410231400,23,热带风暴,16.0,123.7,990,analysis
2420,潭美,TRAMI,202410230900,202410231700,25,强热带风暴,16.6,123.2,985,analysis
2420,潭美,TRAMI,202410231200,202410232000,25,强热带风暴,16.8,123.0,985,analysis
2420,潭美,TRAMI,202410231500,202410232300,25,强热带风暴,17.1,122.7,985,analysis
2420,潭美,TRAMI,202410231800,202410240200,25,强热带风暴,17.3,122.3,985,analysis
2420,潭美,TRAMI,202410232100,202410240500,25,强热带风暴,17.3,121.6,985,analysis
2420,潭美,TRAMI,202410240000,202410240800,23,热带风暴,17.2,121.2,990,analysis
2420,潭美,TRAMI,202410240300,202410241100,23,热带风暴,17.0,120.9,990,analysis
2420,潭美,TRAMI,202410240600,202410241400,23,热带风暴,17.0,120.4,990,analysis
2420,潭美,TRAMI,202410240900,202410241700,23,热带风暴,17.0,120.2,990,analysis
2420,潭美,TRAMI,202410241200,202410242000,23,热带风暴,16.9,120.0,990,analysis
2420,潭美,TRAMI,202410241500,202410242300,23,热带风暴,16.9,119.8,990,analysis
2420,潭美,TRAMI,202410241800,202410250200,23,热带风暴,16.9,119.5,990,analysis
2420,潭美,TRAMI,202410242100,202410250500,23,热带风暴,17.0,119.2,990,analysis
2420,潭美,TRAMI,202410250000,202410250800,25,强热带风暴,17.2,118.8,985,analysis
2420,潭美,TRAMI,202410250100,202410250900,25,强热带风暴,17.3,118.6,985,analysis
2420,潭美,TRAMI,202410250200,202410251000,25,强热带风暴,17.4,118.4,985,analysis
2420,潭美,TRAMI,202410250300,202410251100,25,强热带风暴,17.6,118.0,985,analysis
2420,潭美,TRAMI,202410250400,202410251200,25,强热带风暴,17.6,117.9,985,analysis
2420,潭美,TRAMI,202410250500,202410251300,25,强热带风暴,17.6,117.6,985,analysis
2420,潭美,TRAMI,202410250600,202410251400,28,强热带风暴,17.6,117.3,982,analysis
2420,潭美,TRAMI,202410250700,202410251500,28,强热带风暴,17.6,116.9,982,analysis
2420,潭美,TRAMI,202410250800,202410251600,28,强热带风暴,17.6,116.8,982,analysis
2420,潭美,TRAMI,202410250900,202410251700,28,强热带风暴,17.6,116.5,982,analysis
2420,潭美,TRAMI,202410251000,202410251800,28,强热带风暴,17.6,116.4,982,analysis
2420,潭美,TRAMI,202410251100,202410251900,28,强热带风暴,17.6,116.2,982,analysis
2420,潭美,TRAMI,202410251200,202410252000,28,强热带风暴,17.6,115.9,982,analysis
2420,潭美,TRAMI,202410251300,202410252100,28,强热带风暴,17.5,115.8,982,analysis
2420,潭美,TRAMI,202410251400,202410252200,28,强热带风暴,17.5,115.6,982,analysis
2420,潭美,TRAMI,202410251500,202410252300,28,强热带风暴,17.5,115.4,982,analysis
2420,潭美,TRAMI,202410251600,202410260000,28,强热带风暴,17.5,115.2,982,analysis
2420,潭美,TRAMI,202410251700,202410260100,28,强热带风暴,17.5,115.0,982,analysis
2420,潭美,TRAMI,202410251800,202410260200,30,强热带风暴,17.5,114.8,980,analysis
2420,潭美,TRAMI,202410251900,202410260300,30,强热带风暴,17.5,114.6,980,analysis
2420,潭美,TRAMI,202410252000,202410260400,30,强热带风暴,17.5,114.4,980,analysis
2420,潭美,TRAMI,202410252100,202410260500,30,强热带风暴,17.4,114.1,980,analysis
2420,潭美,TRAMI,202410252200,202410260600,30,强热带风暴,17.4,113.9,980,analysis
2420,潭美,TRAMI,202410252300,202410260700,30,强热带风暴,17.4,113.6,980,analysis
2420,潭美,TRAMI,202410260000,202410260800,30,强热带风暴,17.2,113.3,980,analysis
2420,潭美,TRAMI,202410260100,202410260900,30,强热带风暴,17.1,113.2,980,analysis
2420,潭美,TRAMI,202410260200,202410261000,30,强热带风暴,17.1,113.0,980,analysis
2420,潭美,TRAMI,202410260300,202410261100,33,台风,17.1,112.7,975,analysis
2420,潭美,TRAMI,202410260400,202410261200,33,台风,17.0,112.5,975,analysis
2420,潭美,TRAMI,202410260500,202410261300,33,台风,16.9,112.2,972,analysis
2420,潭美,TRAMI,202410260600,202410261400,33,台风,16.9,111.9,970,analysis
2420,潭美,TRAMI,202410260700,202410261500,33,台风,16.9,111.7,970,analysis
2420,潭美,TRAMI,202410260800,202410261600,33,台风,16.9,111.5,970,analysis
2420,潭美,TRAMI,202410260900,202410261700,33,台风,16.9,111.2,970,analysis
2420,潭美,TRAMI,202410261000,202410261800,33,台风,16.9,111.0,970,analysis
2420,潭美,TRAMI,202410261100,202410261900,33,台风,16.9,110.8,970,analysis
2420,潭美,TRAMI,202410261200,202410262000,33,台风,16.9,110.6,970,analysis
2420,潭美,TRAMI,202410261300,202410262100,30,强热带风暴,16.9,110.4,980,analysis
2420,潭美,TRAMI,202410261400,202410262200,30,强热带风暴,16.9,110.2,980,analysis
2420,潭美,TRAMI,202410261500,202410262300,28,强热带风暴,16.8,110.0,982,analysis
2420,潭美,TRAMI,202410261600,202410270000,28,强热带风暴,16.8,109.9,982,analysis
2420,潭美,TRAMI,202410262200,202410270600,25,强热带风暴,16.6833,108.85,990,forecast
2420,潭美,TRAMI,202410270400,202410271200,23,热带风暴,16.5,108.1167,995,forecast
2420,潭美,TRAMI,202410271000,202410271800,20,热带风暴,15.9667,108.3,998,forecast
2420,潭美,TRAMI,202410271600,202410280000,18,热带风暴,15.8083,108.8417,998,forecast
2420,潭美,TRAMI,202410280400,202410281200,15,热带低压,15.9083,109.3417,1000,forecast
2419,百里嘉,BARIJAT,202410090600,202410091400,18,热带风暴,27.5,149.5,998,analysis
2419,百里嘉,BARIJAT,202410090900,202410091700,18,热带风暴,28.3,149.3,998,analysis
2419,百里嘉,BARIJAT,202410091200,202410092000,18,热带风暴,29.7,149.3,998,analysis
2419,百里嘉,BARIJAT,202410091500,202410092300,18,热带风暴,30.4,149.2,998,analysis
2419,百里嘉,BARIJAT,202410091800,202410100200,18,热带风暴,31.2,149.3,998,analysis
2419,百里嘉,BARIJAT,202410092100,202410100500,18,热带风暴,31.8,149.7,998,analysis
2419,百里嘉,BARIJAT,202410100000,202410100800,18,热带风暴,32.4,150.1,998,analysis
2419,百里嘉,BARIJAT,202410100300,202410101100,18,热带风暴,33.1,150.5,998,analysis
2419,百里嘉,BARIJAT,202410100600,202410101400,18,热带风暴,34.2,151.0,998,analysis
2419,百里嘉,BARIJAT,202410100900,202410101700,18,热带风暴,35.2,151.4,998,analysis
2419,百里嘉,BARIJAT,202410101200,202410102000,18,热带风暴,36.3,152.2,998,analysis
2419,百里嘉,BARIJAT,202410110000,202410110800,18,热带风暴,41.4,153.2,998,forecast
2419,百里嘉,BARIJAT,202410111200,202410112000,20,热带风暴,46.1,153.6,995,forecast
2418,山陀儿,KRATHON,202409262100,202409270500,15,热带低压,21.3,126.7,1002,analysis
2418,山陀儿,KRATHON,202409270000,202409270800,15,热带低压,21.1,126.7,1002,analysis
2418,山陀儿,KRATHON,202409270300,202409271100,15,热带低压,21.1,126.7,1002,analysis
2418,山陀儿,KRATHON,202409270600,202409271400,15,热带低压,20.8,126.5,1002,analysis
2418,山陀儿,KRATHON,202409270900,202409271700,15,热带低压,20.5,126.4,1002,analysis
2418,山陀儿,KRATHON,202409271200,202409272000,15,热带低压,20.2,126.3,1002,analysis
2418,山陀儿,KRATHON,202409271500,202409272300,15,热带低压,19.7,126.1,1002,analysis
2418,山陀儿,KRATHON,202409271800,202409280200,15,热带低压,19.3,125.9,1002,analysis
2418,山陀儿,KRATHON,202409272100,202409280500,15,热带低压,19.1,125.8,1002,analysis
2418,山陀儿,KRATHON,202409280000,202409280800,18,热带风暴,18.6,125.4,1000,analysis
2418,山陀儿,KRATHON,202409280300,202409281100,18,热带风暴,18.8,125.8,1000,analysis
2418,山陀儿,KRATHON,202409280600,202409281400,20,热带风暴,18.7,125.4,995,analysis
2418,山陀儿,KRATHON,202409280900,202409281700,20,热带风暴,18.7,125.2,995,analysis
2418,山陀儿,KRATHON,202409281200,202409282000,23,热带风暴,18.7,125.2,990,analysis
2418,山陀儿,KRATHON,202409281500,202409282300,23,热带风暴,18.5,125.0,990,analysis
2418,山陀儿,KRATHON,202409281800,202409290200,25,强热带风暴,18.6,124.7,985,analysis
2418,山陀儿,KRATHON,202409282100,202409290500,25,强热带风暴,18.7,124.3,985,analysis
2418,山陀儿,KRATHON,202409290000,202409290800,28,强热带风暴,18.7,124.3,982,analysis
2418,山陀儿,KRATHON,202409290300,202409291100,33,台风,19.0,124.2,975,analysis
2418,山陀儿,KRATHON,202409290600,202409291400,33,台风,19.4,123.9,975,analysis
2418,山陀儿,KRATHON,202409290900,202409291700,38,台风,19.5,123.5,965,analysis
2418,山陀儿,KRATHON,202409291200,202409292000,42,强台风,19.8,123.1,955,analysis
2418,山陀儿,KRATHON,202409291500,202409292300,48,强台风,19.8,122.7,945,analysis
2418,山陀儿,KRATHON,202409291700,202409300100,48,强台风,19.8,122.5,945,analysis
2418,山陀儿,KRATHON,202409291800,202409300200,52,超强台风,19.9,122.4,935,analysis
2418,山陀儿,KRATHON,202409291900,202409300300,52,超强台风,19.9,122.4,935,analysis
2418,山陀儿,KRATHON,202409292000,202409300400,52,超强台风,19.9,122.3,935,analysis
2418,山陀儿,KRATHON,202409292100,202409300500,52,超强台风,19.9,122.3,935,analysis
2418,山陀儿,KRATHON,202409292200,202409300600,52,超强台风,19.9,122.2,935,analysis
2418,山陀儿,KRATHON,202409292300,202409300700,52,超强台风,20.0,122.2,935,analysis
2418,山陀儿,KRATHON,202409300000,202409300800,52,超强台风,20.0,122.1,935,analysis
2418,山陀儿,KRATHON,202409300100,202409300900,52,超强台风,20.1,122.0,935,analysis
2418,山陀儿,KRATHON,202409300200,202409301000,52,超强台风,20.1,121.9,935,analysis
2418,山陀儿,KRATHON,202409300300,202409301100,52,超强台风,20.2,121.7,935,analysis
2418,山陀儿,KRATHON,202409300400,202409301200,52,超强台风,20.3,121.6,935,analysis
2418,山陀儿,KRATHON,202409300500,202409301300,52,超强台风,20.4,121.4,935,analysis
2418,山陀儿,KRATHON,202409300600,202409301400,55,超强台风,20.4,121.3,930,analysis
2418,山陀儿,KRATHON,202409300700,202409301500,55,超强台风,20.5,121.1,930,analysis
2418,山陀儿,KRATHON,202409300800,202409301600,55,超强台风,20.5,121.0,930,analysis
2418,山陀儿,KRATHON,202409300900,202409301700,55,超强台风,20.5,120.9,930,analysis
2418,山陀儿,KRATHON,202409301000,202409301800,55,超强台风,20.5,120.7,930,analysis
2418,山陀儿,KRATHON,202409301100,202409301900,55,超强台风,20.5,120.7,930,analysis
2418,山陀儿,KRATHON,202409301200,202409302000,55,超强台风,20.5,120.6,930,analysis
2418,山陀儿,KRATHON,202409301300,202409302100,55,超强台风,20.5,120.5,930,analysis
2418,山陀儿,KRATHON,202409301400,202409302200,55,超强台风,20.5,120.4,930,analysis
2418,山陀儿,KRATHON,202409301500,202409302300,58,超强台风,20.5,120.3,925,analysis
2418,山陀儿,KRATHON,202409301600,202410010000,58,超强台风,20.6,120.2,925,analysis
2418,山陀儿,KRATHON,202409301700,202410010100,58,超强台风,20.6,120.1,925,analysis
2418,山陀儿,KRATHON,202409301800,202410010200,60,超强台风,20.6,120.0,920,analysis
2418,山陀儿,KRATHON,202409301900,202410010300,60,超强台风,20.6,120.0,920,analysis
2418,山陀儿,KRATHON,202409302000,202410010400,60,超强台风,20.6,119.9,920,analysis
2418,山陀儿,KRATHON,202409302100,202410010500,60,超强台风,20.6,119.8,920,analysis
2418,山陀儿,KRATHON,202409302200,202410010600,60,超强台风,20.6,119.8,920,analysis
2418,山陀儿,KRATHON,202409302300,202410010700,60,超强台风,20.6,119.7,920,analysis
2418,山陀儿,KRATHON,202410010000,202410010800,60,超强台风,20.7,119.6,920,analysis
2418,山陀儿,KRATHON,202410010100,202410010900,60,超强台风,20.7,119.6,920,analysis
2418,山陀儿,KRATHON,202410010200,202410011000,60,超强台风,20.7,119.6,920,analysis
2418,山陀儿,KRATHON,202410010300,202410011100,60,超强台风,20.7,119.5,920,analysis
2418,山陀儿,KRATHON,202410010400,202410011200,60,超强台风,20.7,119.5,920,analysis
2418,山陀儿,KRATHON,202410010500,202410011300,60,超强台风,20.8,119.5,920,analysis
2418,山陀儿,KRATHON,202410010600,202410011400,60,超强台风,20.9,119.5,920,analysis
2418,山陀儿,KRATHON,202410010700,202410011500,60,超强台风,20.9,119.5,920,analysis
2418,山陀儿,KRATHON,202410010800,202410011600,60,超强台风,21.0,119.5,920,analysis
2418,山陀儿,KRATHON,202410010900,202410011700,55,超强台风,21.0,119.5,930,analysis
2418,山陀儿,KRATHON,202410011000,202410011800,55,超强台风,21.1,119.5,930,analysis
2418,山陀儿,KRATHON,202410011100,202410011900,55,超强台风,21.2,119.5,930,analysis
2418,山陀儿,KRATHON,202410011200,202410012000,52,超强台风,21.3,119.4,935,analysis
2418,山陀儿,KRATHON,202410011300,202410012100,52,超强台风,21.3,119.4,935,analysis
2418,山陀儿,KRATHON,202410011400,202410012200,52,超强台风,21.3,119.4,935,analysis
2418,山陀儿,KRATHON,202410011500,202410012300,50,强台风,21.4,119.3,940,analysis
2418,山陀儿,KRATHON,202410011600,202410020000,50,强台风,21.4,119.3,940,analysis
2418,山陀儿,KRATHON,202410011700,202410020100,50,强台风,21.5,119.2,940,analysis
2418,山陀儿,KRATHON,202410011800,202410020200,50,强台风,21.5,119.2,940,analysis
2418,山陀儿,KRATHON,202410011900,202410020300,50,强台风,21.5,119.2,940,analysis
2418,山陀儿,KRATHON,202410012000,202410020400,48,强台风,21.5,119.2,945,analysis
2418,山陀儿,KRATHON,202410012100,202410020500,48,强台风,21.5,119.2,945,analysis
2418,山陀儿,KRATHON,202410012200,202410020600,48,强台风,21.5,119.2,945,analysis
2418,山陀儿,KRATHON,202410012300,202410020700,48,强台风,21.6,119.3,945,analysis
2418,山陀儿,KRATHON,202410020000,202410020800,48,强台风,21.6,119.3,945,analysis
2418,山陀儿,KRATHON,202410020100,202410020900,48,强台风,21.7,119.4,945,analysis
2418,山陀儿,KRATHON,202410020200,202410021000,48,强台风,21.7,119.4,945,analysis
2418,山陀儿,KRATHON,202410020300,202410021100,48,强台风,21.8,119.4,945,analysis
2418,山陀儿,KRATHON,202410020400,202410021200,48,强台风,21.8,119.4,945,analysis
2418,山陀儿,KRATHON,202410020500,202410021300,48,强台风,21.8,119.4,945,analysis
2418,山陀儿,KRATHON,202410020600,202410021400,48,强台风,21.9,119.4,945,analysis
2418,山陀儿,KRATHON,202410020700,202410021500,48,强台风,21.9,119.4,945,analysis
2418,山陀儿,KRATHON,202410020800,202410021600,48,强台风,21.9,119.4,945,analysis
2418,山陀儿,KRATHON,202410020900,202410021700,45,强台风,22.0,119.5,950,analysis
2418,山陀儿,KRATHON,202410021000,202410021800,45,强台风,22.0,119.5,950,analysis
2418,山陀儿,KRATHON,202410021100,202410021900,45,强台风,22.0,119.5,950,analysis
2418,山陀儿,KRATHON,202410021200,202410022000,45,强台风,22.0,119.5,950,analysis
2418,山陀儿,KRATHON,202410021300,202410022100,45,强台风,22.1,119.5,950,analysis
2418,山陀儿,KRATHON,202410021400,202410022200,45,强台风,22.1,119.5,950,analysis
2418,山陀儿,KRATHON,202410021500,202410022300,45,强台风,22.1,119.6,950,analysis
2418,山陀儿,KRATHON,202410021600,202410030000,45,强台风,22.1,119.6,950,analysis
2418,山陀儿,KRATHON,202410021700,202410030100,45,强台风,22.2,119.6,950,analysis
2418,山陀儿,KRATHON,202410021800,202410030200,42,强台风,22.2,119.7,955,analysis
2418,山陀儿,KRATHON,202410021900,202410030300,42,强台风,22.2,119.8,955,analysis
2418,山陀儿,KRATHON,202410022000,202410030400,42,强台风,22.2,119.9,955,analysis
2418,山陀儿,KRATHON,202410022100,202410030500,40,台风,22.2,119.9,960,analysis
2418,山陀儿,KRATHON,202410022200,202410030600,40,台风,22.2,120.0,960,analysis
2418,山陀儿,KRATHON,202410022300,202410030700,40,台风,22.2,120.0,960,analysis
2418,山陀儿,KRATHON,202410030000,202410030800,40,台风,22.3,120.0,960,analysis
2418,山陀儿,KRATHON,202410030100,202410030900,38,台风,22.3,120.1,965,analysis
2418,山陀儿,KRATHON,202410030200,202410031000,38,台风,22.4,120.1,965,analysis
2418,山陀儿,KRATHON,202410030300,202410031100,38,台风,22.4,120.2,965,analysis
2418,山陀儿,KRATHON,202410030400,202410031200,38,台风,22.4,120.3,965,analysis
2418,山陀儿,KRATHON,202410030500,202410031300,38,台风,22.5,120.4,965,analysis
2418,山陀儿,KRATHON,202410030600,202410031400,38,台风,22.6,120.4,965,analysis
2418,山陀儿,KRATHON,202410030700,202410031500,38,台风,22.6,120.4,965,analysis
2418,山陀儿,KRATHON,202410030800,202410031600,35,台风,22.7,120.5,970,analysis
2418,山陀儿,KRATHON,202410030900,202410031700,33,台风,22.7,120.5,975,analysis
2418,山陀儿,KRATHON,202410031000,202410031800,33,台风,22.7,120.5,975,analysis
2418,山陀儿,KRATHON,202410031100,202410031900,33,台风,22.7,120.5,975,analysis
2418,山陀儿,KRATHON,202410031200,202410032000,30,强热带风暴,22.7,120.5,980,analysis
2418,山陀儿,KRATHON,202410031300,202410032100,30,强热带风暴,22.6,120.5,980,analysis
2418,山陀儿,KRATHON,202410031400,202410032200,25,强热带风暴,22.6,120.6,985,analysis
2418,山陀儿,KRATHON,202410031500,202410032300,23,热带风暴,22.6,120.6,990,analysis
2418,山陀儿,KRATHON,202410031600,202410040000,20,热带风暴,22.7,120.6,995,analysis
2418,山陀儿,KRATHON,202410031700,202410040100,18,热带风暴,22.7,120.6,998,analysis
2418,山陀儿,KRATHON,202410031800,202410040200,15,热带低压,22.7,120.6,1000,analysis
2417,飞燕,JEBI,202409270600,202409271400,18,热带风暴,18.2,145.0,998,analysis
2417,飞燕,JEBI,202409270900,202409271700,18,热带风暴,18.3,144.9,998,analysis
2417,飞燕,JEBI,202409271200,202409272000,18,热带风暴,18.4,144.8,998,analysis
2417,飞燕,JEBI,202409271500,202409272300,18,热带风暴,18.5,144.7,998,analysis
2417,飞燕,JEBI,202409271800,202409280200,18,热带风暴,18.7,144.5,998,analysis
2417,飞燕,JEBI,202409272100,202409280500,20,热带风暴,19.0,144.3,995,analysis
2417,飞燕,JEBI,202409280000,202409280800,18,热带风暴,19.8,143.5,998,analysis
2417,飞燕,JEBI,202409280300,202409281100,18,热带风暴,20.3,143.1,998,analysis
2417,飞燕,JEBI,202409280600,202409281400,18,热带风暴,20.6,142.7,998,analysis
2417,飞燕,JEBI,202409280900,202409281700,18,热带风暴,20.9,142.3,998,analysis
2417,飞燕,JEBI,202409281200,202409282000,18,热带风暴,21.6,142.0,998,analysis
2417,飞燕,JEBI,202409281500,202409282300,18,热带风暴,21.8,141.7,998,analysis
2417,飞燕,JEBI,202409281800,202409290200,18,热带风暴,22.2,141.5,998,analysis
2417,飞燕,JEBI,202409282100,202409290500,18,热带风暴,22.2,141.5,998,analysis
2417,飞燕,JEBI,202409290000,202409290800,18,热带风暴,22.6,141.2,998,analysis
2417,飞燕,JEBI,202409290300,202409291100,18,热带风暴,23.2,141.2,998,analysis
2417,飞燕,JEBI,202409290600,202409291400,18,热带风暴,24.0,141.4,998,analysis
2417,飞燕,JEBI,202409290900,202409291700,20,热带风暴,24.5,141.4,995,analysis
2417,飞燕,JEBI,202409291200,202409292000,20,热带风暴,24.6,141.4,995,analysis
2417,飞燕,JEBI,202409291500,202409292300,20,热带风暴,24.7,141.1,995,analysis
2417,飞燕,JEBI,202409291800,202409300200,20,热带风暴,25.0,141.0,995,analysis
2417,飞燕,JEBI,202409292100,202409300500,20,热带风暴,25.5,140.9,995,analysis
2417,飞燕,JEBI,202409300000,202409300800,20,热带风暴,25.9,140.5,995,analysis
2417,飞燕,JEBI,202409300300,202409301100,20,热带风暴,26.3,140.5,995,analysis
2417,飞燕,JEBI,202409300600,202409301400,23,热带风暴,27.6,140.6,990,analysis
2417,飞燕,JEBI,202409300900,202409301700,23,热带风暴,28.4,140.7,990,analysis
2417,飞燕,JEBI,202409301200,202409302000,23,热带风暴,29.0,140.8,990,analysis
2417,飞燕,JEBI,202409301500,202409302300,23,热带风暴,29.7,141.0,990,analysis
2417,飞燕,JEBI,202409301800,202410010200,23,热带风暴,30.4,141.3,990,analysis
2417,飞燕,JEBI,202409302100,202410010500,25,强热带风暴,31.6,141.4,985,analysis
2417,飞燕,JEBI,202410010000,202410010800,25,强热带风暴,32.6,141.4,985,analysis
2417,飞燕,JEBI,202410010300,202410011100,25,强热带风暴,33.7,141.7,985,analysis
2417,飞燕,JEBI,202410010600,202410011400,25,强热带风暴,34.6,142.2,985,analysis
2417,飞燕,JEBI,202410010900,202410011700,25,强热带风暴,35.4,142.7,985,analysis
2417,飞燕,JEBI,202410011200,202410012000,25,强热带风暴,36.8,143.8,985,analysis
2417,飞燕,JEBI,202410011500,202410012300,25,强热带风暴,38.0,144.4,985,analysis
2417,飞燕,JEBI,202410020300,202410021100,23,热带风暴,42.9,149.9,985,forecast
2416,西马仑,CIMARON,202409250600,202409251400,18,热带风暴,28.1,133.9,1002,analysis
2416,西马仑,CIMARON,202409250900,202409251700,18,热带风暴,28.1,133.5,1002,analysis
2416,西马仑,CIMARON,202409251200,202409252000,18,热带风暴,28.1,133.3,1002,analysis
2416,西马仑,CIMARON,202409251500,202409252300,18,热带风暴,28.0,133.1,1002,analysis
2416,西马仑,CIMARON,202409251800,202409260200,18,热带风暴,28.0,132.9,1002,analysis
2416,西马仑,CIMARON,202409252100,202409260500,18,热带风暴,28.0,132.7,1002,analysis
2416,西马仑,CIMARON,202409260000,202409260800,18,热带风暴,28.3,132.4,1002,analysis
2416,西马仑,CIMARON,202409260300,202409261100,16,热带低压,28.3,132.2,1003,analysis
2415,苏力,SOULIK,202409170900,202409171700,15,热带低压,17.4,117.1,1002,analysis
2415,苏力,SOULIK,202409171200,202409172000,15,热带低压,16.9,115.8,1002,analysis
2415,苏力,SOULIK,202409171500,202409172300,15,热带低压,16.7,115.1,1002,analysis
2415,苏力,SOULIK,202409171800,202409180200,15,热带低压,16.6,114.1,1002,analysis
2415,苏力,SOULIK,202409172100,202409180500,15,热带低压,16.5,113.7,1002,analysis
2415,苏力,SOULIK,202409180000,202409180800,15,热带低压,16.5,112.7,1002,analysis
2415,苏力,SOULIK,202409180300,202409181100,15,热带低压,16.5,112.6,1002,analysis
2415,苏力,SOULIK,202409180600,202409181400,15,热带低压,17.0,112.1,1002,analysis
2415,苏力,SOULIK,202409180900,202409181700,15,热带低压,17.1,111.7,1002,analysis
2415,苏力,SOULIK,202409181200,202409182000,15,热带低压,17.5,111.3,1002,analysis
2415,苏力,SOULIK,202409181500,202409182300,15,热带低压,17.5,110.5,1002,analysis
2415,苏力,SOULIK,202409181800,202409190200,15,热带低压,17.6,109.8,1002,analysis
2415,苏力,SOULIK,202409182100,202409190500,15,热带低压,17.6,109.1,1002,analysis
2415,苏力,SOULIK,202409190000,202409190800,18,热带风暴,17.6,108.3,998,analysis
2415,苏力,SOULIK,202409190200,202409191000,18,热带风暴,17.5,107.9,998,analysis
2415,苏力,SOULIK,202409190300,202409191100,18,热带风暴,17.3,107.6,998,analysis
2415,苏力,SOULIK,202409190400,202409191200,18,热带风暴,17.0,107.3,998,analysis
2415,苏力,SOULIK,202409190500,202409191300,18,热带风暴,17.0,107.3,998,analysis
2415,苏力,SOULIK,202409190600,202409191400,18,热带风暴,16.7,107.0,998,analysis
2415,苏力,SOULIK,202409190900,202409191700,15,热带低压,16.5,106.8,1002,analysis
2415,苏力,SOULIK,202409191500,202409192300,12,热带低压,16.4,106.4,1004,forecast
2414,普拉桑,PULASAN,202409151200,202409152000,18,热带风暴,13.5,143.9,1002,analysis
2414,普拉桑,PULASAN,202409151500,202409152300,18,热带风暴,13.9,143.6,1002,analysis
2414,普拉桑,PULASAN,202409151800,202409160200,18,热带风暴,13.9,143.6,1002,analysis
2414,普拉桑,PULASAN,202409152100,202409160500,18,热带风暴,14.5,143.6,998,analysis
2414,普拉桑,PULASAN,202409160000,202409160800,18,热带风暴,15.4,143.3,998,analysis
2414,普拉桑,PULASAN,202409160300,202409161100,18,热带风暴,16.0,142.9,998,analysis
2414,普拉桑,PULASAN,202409160600,202409161400,18,热带风暴,16.4,142.6,998,analysis
2414,普拉桑,PULASAN,202409160900,202409161700,18,热带风暴,16.5,142.4,998,analysis
2414,普拉桑,PULASAN,202409161200,202409162000,18,热带风暴,16.8,142.0,998,analysis
2414,普拉桑,PULASAN,202409161500,202409162300,18,热带风暴,16.9,141.7,998,analysis
2414,普拉桑,PULASAN,202409161800,202409170200,18,热带风暴,17.2,141.3,998,analysis
2414,普拉桑,PULASAN,202409162100,202409170500,18,热带风暴,17.4,140.8,998,analysis
2414,普拉桑,PULASAN,202409170000,202409170800,18,热带风暴,18.2,140.0,998,analysis
2414,普拉桑,PULASAN,202409170300,202409171100,18,热带风暴,20.8,138.5,998,analysis
2414,普拉桑,PULASAN,202409170600,202409171400,18,热带风暴,22.1,137.0,998,analysis
2414,普拉桑,PULASAN,202409170900,202409171700,18,热带风暴,22.1,135.5,998,analysis
2414,普拉桑,PULASAN,202409171200,202409172000,18,热带风暴,22.1,134.9,998,analysis
2414,普拉桑,PULASAN,202409171500,202409172300,23,热带风暴,22.2,133.7,990,analysis
2414,普拉桑,PULASAN,202409171800,202409180200,23,热带风暴,22.2,133.0,990,analysis
2414,普拉桑,PULASAN,202409172100,202409180500,23,热带风暴,22.8,132.6,990,analysis
2414,普拉桑,PULASAN,202409180000,202409180800,23,热带风暴,23.2,132.3,990,analysis
2414,普拉桑,PULASAN,202409180300,202409181100,23,热带风暴,23.6,131.1,990,analysis
2414,普拉桑,PULASAN,202409180600,202409181400,23,热带风暴,24.3,130.2,990,analysis
2414,普拉桑,PULASAN,202409180900,202409181700,23,热带风暴,25.7,129.2,990,analysis
2414,普拉桑,PULASAN,202409181200,202409182000,23,热带风暴,26.0,128.9,990,analysis
2414,普拉桑,PULASAN,202409181500,202409182300,23,热带风暴,26.6,127.2,990,analysis
2414,普拉桑,PULASAN,202409181800,202409190200,23,热带风暴,27.2,126.2,990,analysis
2414,普拉桑,PULASAN,202409181900,202409190300,23,热带风暴,27.4,125.8,990,analysis
2414,普拉桑,PULASAN,202409182000,202409190400,23,热带风暴,27.4,125.8,990,analysis
2414,普拉桑,PULASAN,202409182100,202409190500,23,热带风暴,27.4,125.8,990,analysis
2414,普拉桑,PULASAN,202409182200,202409190600,23,热带风暴,27.4,125.8,990,analysis
2414,普拉桑,PULASAN,202409182300,202409190700,23,热带风暴,27.4,125.8,990,analysis
2414,普拉桑,PULASAN,202409190000,202409190800,25,强热带风暴,28.0,125.7,985,analysis
2414,普拉桑,PULASAN,202409190100,202409190900,25,强热带风暴,28.4,125.4,985,analysis
2414,普拉桑,PULASAN,202409190200,202409191000,25,强热带风暴,28.8,125.1,985,analysis
2414,普拉桑,PULASAN,202409190300,202409191100,25,强热带风暴,29.1,124.8,985,analysis
2414,普拉桑,PULASAN,202409190400,202409191200,25,强热带风暴,29.2,124.6,985,analysis
2414,普拉桑,PULASAN,202409190500,202409191300,25,强热带风暴,29.2,124.5,985,analysis
2414,普拉桑,PULASAN,202409190600,202409191400,25,强热带风暴,29.4,124.3,985,analysis
2414,普拉桑,PULASAN,202409190700,202409191500,25,强热带风暴,29.5,124.2,985,analysis
2414,普拉桑,PULASAN,202409190800,202409191600,25,强热带风暴,29.8,123.5,985,analysis
2414,普拉桑,PULASAN,202409190900,202409191700,25,强热带风暴,30.0,123.1,985,analysis
2414,普拉桑,PULASAN,202409191000,202409191800,25,强热带风暴,30.2,122.6,985,analysis
2414,普拉桑,PULASAN,202409191100,202409191900,25,强热带风暴,30.3,122.2,990,analysis
2414,普拉桑,PULASAN,202409191200,202409192000,25,强热带风暴,30.4,122.0,990,analysis
2414,普拉桑,PULASAN,202409191300,202409192100,25,强热带风暴,30.7,121.8,990,analysis
2414,普拉桑,PULASAN,202409191400,202409192200,23,热带风暴,31.0,121.7,995,analysis
2414,普拉桑,PULASAN,202409191500,202409192300,23,热带风暴,31.1,121.6,995,analysis
2414,普拉桑,PULASAN,202409191600,202409200000,23,热带风暴,31.2,121.4,995,analysis
2414,普拉桑,PULASAN,202409191700,202409200100,23,热带风暴,31.4,121.2,995,analysis
2414,普拉桑,PULASAN,202409191800,202409200200,20,热带风暴,31.5,120.9,998,analysis
2414,普拉桑,PULASAN,202409191900,202409200300,20,热带风暴,31.6,120.7,998,analysis
2414,普拉桑,PULASAN,202409192000,202409200400,20,热带风暴,31.8,120.4,998,analysis
2414,普拉桑,PULASAN,202409192100,202409200500,18,热带风暴,31.9,120.3,1000,analysis
2414,普拉桑,PULASAN,202409192200,202409200600,18,热带风暴,31.9,120.2,1000,analysis
2414,普拉桑,PULASAN,202409192300,202409200700,18,热带风暴,31.9,120.0,1000,analysis
2414,普拉桑,PULASAN,202409200000,202409200800,15,热带低压,31.9,120.0,1000,analysis
2414,普拉桑,PULASAN,202409200300,202409201100,15,热带低压,32.1,120.0,1000,analysis
2414,普拉桑,PULASAN,202409200600,202409201400,15,热带低压,32.5,120.4,1000,analysis
2414,普拉桑,PULASAN,202409200900,202409201700,15,热带低压,32.7,120.6,1000,analysis
2414,普拉桑,PULASAN,202409201200,202409202000,15,热带低压,33.0,121.1,1000,analysis
2414,普拉桑,PULASAN,202409201500,202409202300,15,热带低压,33.0,121.7,998,analysis
2414,普拉桑,PULASAN,202409201800,202409210200,18,热带风暴,33.3,122.8,998,analysis
2414,普拉桑,PULASAN,202409201900,202409210300,18,热带风暴,33.4,123.0,998,analysis
2414,普拉桑,PULASAN,202409202000,202409210400,18,热带风暴,33.5,123.2,998,analysis
2414,普拉桑,PULASAN,202409202100,202409210500,23,热带风暴,33.7,123.5,990,analysis
2414,普拉桑,PULASAN,202409202200,202409210600,23,热带风暴,33.8,123.7,990,analysis
2414,普拉桑,PULASAN,202409202300,202409210700,23,热带风暴,33.9,123.7,990,analysis
2414,普拉桑,PULASAN,202409210000,202409210800,20,热带风暴,34.2,123.8,995,analysis
2414,普拉桑,PULASAN,202409210100,202409210900,20,热带风暴,34.3,124.2,995,analysis
2414,普拉桑,PULASAN,202409210200,202409211000,20,热带风暴,34.4,124.5,995,analysis
2414,普拉桑,PULASAN,202409210300,202409211100,20,热带风暴,34.5,124.7,995,analysis
2414,普拉桑,PULASAN,202409210400,202409211200,20,热带风暴,34.6,125.0,995,analysis
2414,普拉桑,PULASAN,202409210500,202409211300,20,热带风暴,34.8,125.6,995,analysis
2414,普拉桑,PULASAN,202409210600,202409211400,18,热带风暴,34.9,126.0,1000,analysis
2414,普拉桑,PULASAN,202409210900,202409211700,18,热带风暴,35.1,126.9,1000,analysis
2413,贝碧嘉,BEBINCA,202409101200,202409102000,18,热带风暴,12.4,145.4,998,analysis
2413,贝碧嘉,BEBINCA,202409101500,202409102300,18,热带风暴,12.9,144.9,998,analysis
2413,贝碧嘉,BEBINCA,202409101800,202409110200,18,热带风暴,13.3,144.5,998,analysis
2413,贝碧嘉,BEBINCA,202409102100,202409110500,23,热带风暴,13.4,143.9,990,analysis
2413,贝碧嘉,BEBINCA,202409110000,202409110800,23,热带风暴,13.6,143.3,990,analysis
2413,贝碧嘉,BEBINCA,202409110300,202409111100,25,强热带风暴,14.0,143.2,985,analysis
2413,贝碧嘉,BEBINCA,202409110600,202409111400,25,强热带风暴,14.7,142.5,985,analysis
2413,贝碧嘉,BEBINCA,202409110900,202409111700,25,强热带风暴,15.0,141.8,985,analysis
2413,贝碧嘉,BEBINCA,202409111200,202409112000,25,强热带风暴,15.1,141.6,985,analysis
2413,贝碧嘉,BEBINCA,202409111500,202409112300,28,强热带风暴,15.2,141.4,982,analysis
2413,贝碧嘉,BEBINCA,202409111800,202409120200,28,强热带风暴,16.0,140.8,982,analysis
2413,贝碧嘉,BEBINCA,202409112100,202409120500,28,强热带风暴,17.1,140.4,982,analysis
2413,贝碧嘉,BEBINCA,202409120000,202409120800,28,强热带风暴,17.3,140.0,982,analysis
2413,贝碧嘉,BEBINCA,202409120300,202409121100,28,强热带风暴,18.1,139.9,982,analysis
2413,贝碧嘉,BEBINCA,202409120600,202409121400,30,强热带风暴,19.1,139.8,980,analysis
2413,贝碧嘉,BEBINCA,202409120900,202409121700,30,强热带风暴,20.1,139.5,980,analysis
2413,贝碧嘉,BEBINCA,202409121200,202409122000,30,强热带风暴,20.4,138.9,980,analysis
2413,贝碧嘉,BEBINCA,202409121500,202409122300,30,强热带风暴,20.7,138.4,980,analysis
2413,贝碧嘉,BEBINCA,202409121800,202409130200,30,强热带风暴,21.0,137.6,980,analysis
2413,贝碧嘉,BEBINCA,202409122100,202409130500,30,强热带风暴,21.1,137.3,980,analysis
2413,贝碧嘉,BEBINCA,202409130000,202409130800,28,强热带风暴,21.7,137.1,982,analysis
2413,贝碧嘉,BEBINCA,202409130300,202409131100,28,强热带风暴,22.5,136.3,982,analysis
2413,贝碧嘉,BEBINCA,202409130600,202409131400,28,强热带风暴,23.6,135.6,982,analysis
2413,贝碧嘉,BEBINCA,202409130900,202409131700,28,强热带风暴,24.3,135.0,982,analysis
2413,贝碧嘉,BEBINCA,202409131200,202409132000,28,强热带风暴,24.9,133.8,982,analysis
2413,贝碧嘉,BEBINCA,202409131500,202409132300,28,强热带风暴,25.2,133.2,982,analysis
2413,贝碧嘉,BEBINCA,202409131800,202409140200,28,强热带风暴,25.3,132.7,982,analysis
2413,贝碧嘉,BEBINCA,202409132100,202409140500,28,强热带风暴,25.7,132.2,982,analysis
2413,贝碧嘉,BEBINCA,202409140000,202409140800,28,强热带风暴,26.2,131.5,982,analysis
2413,贝碧嘉,BEBINCA,202409140300,202409141100,28,强热带风暴,26.7,131.0,982,analysis
2413,贝碧嘉,BEBINCA,202409140600,202409141400,30,强热带风暴,27.3,130.3,980,analysis
2413,贝碧嘉,BEBINCA,202409140900,202409141700,30,强热带风暴,27.9,129.6,980,analysis
2413,贝碧嘉,BEBINCA,202409141200,202409142000,30,强热带风暴,28.2,129.3,980,analysis
2413,贝碧嘉,BEBINCA,202409141500,202409142300,33,台风,28.5,128.6,975,analysis
2413,贝碧嘉,BEBINCA,202409141800,202409150200,33,台风,28.8,128.0,975,analysis
2413,贝碧嘉,BEBINCA,202409142100,202409150500,33,台风,29.1,127.5,975,analysis
2413,贝碧嘉,BEBINCA,202409150000,202409150800,35,台风,29.6,127.1,970,analysis
2413,贝碧嘉,BEBINCA,202409150200,202409151000,35,台风,29.7,126.9,970,analysis
2413,贝碧嘉,BEBINCA,202409150300,202409151100,38,台风,29.8,126.7,965,analysis
2413,贝碧嘉,BEBINCA,202409150400,202409151200,40,台风,29.9,126.5,960,analysis
2413,贝碧嘉,BEBINCA,202409150500,202409151300,40,台风,30.1,126.4,960,analysis
2413,贝碧嘉,BEBINCA,202409150600,202409151400,40,台风,30.1,126.2,960,analysis
2413,贝碧嘉,BEBINCA,202409150700,202409151500,40,台风,30.2,126.0,960,analysis
2413,贝碧嘉,BEBINCA,202409150800,202409151600,40,台风,30.2,125.8,960,analysis
2413,贝碧嘉,BEBINCA,202409150900,202409151700,40,台风,30.2,125.8,960,analysis
2413,贝碧嘉,BEBINCA,202409151000,202409151800,40,台风,30.3,125.5,960,analysis
2413,贝碧嘉,BEBINCA,202409151100,202409151900,40,台风,30.3,125.1,960,analysis
2413,贝碧嘉,BEBINCA,202409151200,202409152000,40,台风,30.3,124.8,960,analysis
2413,贝碧嘉,BEBINCA,202409151300,202409152100,40,台风,30.3,124.6,960,analysis
2413,贝碧嘉,BEBINCA,202409151400,202409152200,40,台风,30.3,124.4,960,analysis
2413,贝碧嘉,BEBINCA,202409151500,202409152300,40,台风,30.3,124.2,960,analysis
2413,贝碧嘉,BEBINCA,202409151600,202409160000,40,台风,30.4,123.9,960,analysis
2413,贝碧嘉,BEBINCA,202409151700,202409160100,42,强台风,30.5,123.6,955,analysis
2413,贝碧嘉,BEBINCA,202409151800,202409160200,42,强台风,30.5,123.2,955,analysis
2413,贝碧嘉,BEBINCA,202409151900,202409160300,42,强台风,30.6,123.0,955,analysis
2413,贝碧嘉,BEBINCA,202409152000,202409160400,42,强台风,30.6,122.8,955,analysis
2413,贝碧嘉,BEBINCA,202409152100,202409160500,45,强台风,30.7,122.5,955,analysis
2413,贝碧嘉,BEBINCA,202409152200,202409160600,45,强台风,30.7,122.3,955,analysis
2413,贝碧嘉,BEBINCA,202409152300,202409160700,45,强台风,30.8,122.1,955,analysis
2413,贝碧嘉,BEBINCA,202409160000,202409160800,42,强台风,30.9,121.8,955,analysis
2413,贝碧嘉,BEBINCA,202409160100,202409160900,40,台风,31.0,121.6,965,analysis
2413,贝碧嘉,BEBINCA,202409160200,202409161000,38,台风,31.1,121.4,975,analysis
2413,贝碧嘉,BEBINCA,202409160300,202409161100,38,台风,31.2,121.1,975,analysis
2413,贝碧嘉,BEBINCA,202409160400,202409161200,38,台风,31.3,120.9,975,analysis
2413,贝碧嘉,BEBINCA,202409160500,202409161300,35,台风,31.4,120.7,975,analysis
2413,贝碧嘉,BEBINCA,202409160600,202409161400,33,台风,31.5,120.5,975,analysis
2413,贝碧嘉,BEBINCA,202409160700,202409161500,30,强热带风暴,31.5,120.2,978,analysis
2413,贝碧嘉,BEBINCA,202409160800,202409161600,30,强热带风暴,31.5,120.1,978,analysis
2413,贝碧嘉,BEBINCA,202409160900,202409161700,30,强热带风暴,31.5,119.9,978,analysis
2413,贝碧嘉,BEBINCA,202409161000,202409161800,28,强热带风暴,31.6,119.8,980,analysis
2413,贝碧嘉,BEBINCA,202409161100,202409161900,28,强热带风暴,31.7,119.6,980,analysis
2413,贝碧嘉,BEBINCA,202409161200,202409162000,28,强热带风暴,31.8,119.4,980,analysis
2413,贝碧嘉,BEBINCA,202409161300,202409162100,28,强热带风暴,31.8,119.1,980,analysis
2413,贝碧嘉,BEBINCA,202409161400,202409162200,28,强热带风暴,31.9,118.9,980,analysis
2413,贝碧嘉,BEBINCA,202409161500,202409162300,25,强热带风暴,31.9,118.8,985,analysis
2413,贝碧嘉,BEBINCA,202409161600,202409170000,25,强热带风暴,32.0,118.5,985,analysis
2413,贝碧嘉,BEBINCA,202409161700,202409170100,25,强热带风暴,32.1,118.3,985,analysis
2413,贝碧嘉,BEBINCA,202409161800,202409170200,23,热带风暴,32.2,118.1,990,analysis
2413,贝碧嘉,BEBINCA,202409161900,202409170300,20,热带风暴,32.2,118.0,990,analysis
2413,贝碧嘉,BEBINCA,202409162000,202409170400,20,热带风暴,32.3,117.8,990,analysis
2413,贝碧嘉,BEBINCA,202409162100,202409170500,18,热带风暴,32.4,117.6,998,analysis
2413,贝碧嘉,BEBINCA,202409162200,202409170600,18,热带风暴,32.5,117.3,998,analysis
2413,贝碧嘉,BEBINCA,202409162300,202409170700,18,热带风暴,32.5,117.2,998,analysis
2413,贝碧嘉,BEBINCA,202409170000,202409170800,18,热带风暴,32.6,117.0,998,analysis
2413,贝碧嘉,BEBINCA,202409170100,202409170900,18,热带风暴,32.6,116.9,998,analysis
2413,贝碧嘉,BEBINCA,202409170200,202409171000,18,热带风暴,32.7,116.8,998,analysis
2413,贝碧嘉,BEBINCA,202409170300,202409171100,18,热带风暴,32.8,116.7,998,analysis
2413,贝碧嘉,BEBINCA,202409170400,202409171200,18,热带风暴,32.9,116.6,998,analysis
2413,贝碧嘉,BEBINCA,202409170500,202409171300,18,热带风暴,33.0,116.5,998,analysis
2413,贝碧嘉,BEBINCA,202409170600,202409171400,18,热带风暴,33.0,116.3,998,analysis
2413,贝碧嘉,BEBINCA,202409170700,202409171500,18,热带风暴,33.0,116.2,998,analysis
2413,贝碧嘉,BEBINCA,202409170800,202409171600,18,热带风暴,33.1,116.1,998,analysis
2413,贝碧嘉,BEBINCA,202409170900,202409171700,15,热带低压,33.1,116.1,1000,analysis
2413,贝碧嘉,BEBINCA,202409171200,202409172000,15,热带低压,33.1,115.9,1000,analysis
2413,贝碧嘉,BEBINCA,202409171500,202409172300,15,热带低压,33.2,115.7,1000,analysis
2413,贝碧嘉,BEBINCA,202409171800,202409180200,15,热带低压,33.3,115.4,1000,analysis
2413,贝碧嘉,BEBINCA,202409172100,202409180500,12,热带低压,33.5,115.2,1004,analysis
2413,贝碧嘉,BEBINCA,202409180000,202409180800,12,热带低压,33.5,115.0,1004,analysis
2413,贝碧嘉,BEBINCA,202409180300,202409181100,12,热带低压,33.5,114.8,1004,analysis
2413,贝碧嘉,BEBINCA,202409180600,202409181400,12,热带低压,33.4,114.8,1004,analysis
2413,贝碧嘉,BEBINCA,202409180900,202409181700,12,热带低压,33.2,114.7,1004,analysis
2413,贝碧嘉,BEBINCA,202409181200,202409182000,12,热带低压,32.7,114.9,1004,analysis
2412,丽琵,LEEPI,202409050600,202409051400,18,热带风暴,33.1,145.8,1002,analysis
2412,丽琵,LEEPI,202409050900,202409051700,18,热带风暴,33.6,146.1,1002,analysis
2412,丽琵,LEEPI,202409051200,202409052000,18,热带风暴,33.8,146.2,1002,analysis
2412,丽琵,LEEPI,202409051500,202409052300,18,热带风暴,34.1,146.4,1002,analysis
2412,丽琵,LEEPI,202409051800,202409060200,18,热带风暴,34.8,146.9,1002,analysis
2412,丽琵,LEEPI,202409052100,202409060500,18,热带风暴,35.4,147.4,1002,analysis
2412,丽琵,LEEPI,202409060000,202409060800,18,热带风暴,35.8,148.0,1002,analysis
2412,丽琵,LEEPI,202409061200,202409062000,15,热带低压,38.1,150.5,1005,forecast
2412,丽琵,LEEPI,202409070000,202409070800,15,热带低压,40.4,154.0,1005,forecast
2411,摩羯,YAGI,202409010600,202409011400,15,热带低压,13.0,125.3,1002,analysis
2411,摩羯,YAGI,202409010900,202409011700,15,热带低压,13.3,125.1,1002,analysis
2411,摩羯,YAGI,202409011200,202409012000,15,热带低压,13.9,124.5,1002,analysis
2411,摩羯,YAGI,202409011500,202409012300,18,热带风暴,14.3,123.9,998,analysis
2411,摩羯,YAGI,202409011800,202409020200,20,热带风暴,14.5,123.7,995,analysis
2411,摩羯,YAGI,202409012100,202409020500,20,热带风暴,14.5,123.1,995,analysis
2411,摩羯,YAGI,202409020000,202409020800,20,热带风暴,15.1,122.8,995,analysis
2411,摩羯,YAGI,202409020300,202409021100,20,热带风暴,15.7,122.7,995,analysis
2411,摩羯,YAGI,202409020600,202409021400,20,热带风暴,16.3,122.3,995,analysis
2411,摩羯,YAGI,202409020900,202409021700,20,热带风暴,16.8,122.1,995,analysis
2411,摩羯,YAGI,202409021200,202409022000,20,热带风暴,17.3,121.7,995,analysis
2411,摩羯,YAGI,202409021500,202409022300,20,热带风暴,17.7,121.3,995,analysis
2411,摩羯,YAGI,202409021800,202409030200,20,热带风暴,18.2,120.7,995,analysis
2411,摩羯,YAGI,202409022100,202409030500,20,热带风暴,18.2,119.7,995,analysis
2411,摩羯,YAGI,202409030000,202409030800,23,热带风暴,18.2,119.7,990,analysis
2411,摩羯,YAGI,202409030100,202409030900,23,热带风暴,18.4,119.3,990,analysis
2411,摩羯,YAGI,202409030200,202409031000,23,热带风暴,18.4,119.3,990,analysis
2411,摩羯,YAGI,202409030300,202409031100,23,热带风暴,18.4,119.3,990,analysis
2411,摩羯,YAGI,202409030400,202409031200,23,热带风暴,18.5,119.2,990,analysis
2411,摩羯,YAGI,202409030500,202409031300,23,热带风暴,18.7,119.1,990,analysis
2411,摩羯,YAGI,202409030600,202409031400,23,热带风暴,18.7,119.1,990,analysis
2411,摩羯,YAGI,202409030700,202409031500,23,热带风暴,18.7,118.9,990,analysis
2411,摩羯,YAGI,202409030800,202409031600,23,热带风暴,18.7,118.6,990,analysis
2411,摩羯,YAGI,202409030900,202409031700,25,强热带风暴,18.7,118.6,985,analysis
2411,摩羯,YAGI,202409031000,202409031800,25,强热带风暴,18.7,118.6,985,analysis
2411,摩羯,YAGI,202409031100,202409031900,25,强热带风暴,18.7,118.6,985,analysis
2411,摩羯,YAGI,202409031200,202409032000,25,强热带风暴,18.7,118.6,985,analysis
2411,摩羯,YAGI,202409031300,202409032100,25,强热带风暴,18.7,118.5,985,analysis
2411,摩羯,YAGI,202409031400,202409032200,25,强热带风暴,18.7,118.5,985,analysis
2411,摩羯,YAGI,202409031500,202409032300,28,强热带风暴,18.7,118.5,982,analysis
2411,摩羯,YAGI,202409031600,202409040000,28,强热带风暴,18.7,118.4,982,analysis
2411,摩羯,YAGI,202409031700,202409040100,28,强热带风暴,18.8,118.3,982,analysis
2411,摩羯,YAGI,202409031800,202409040200,28,强热带风暴,18.9,118.2,982,analysis
2411,摩羯,YAGI,202409031900,202409040300,28,强热带风暴,19.0,118.1,982,analysis
2411,摩羯,YAGI,202409032000,202409040400,28,强热带风暴,19.0,118.1,982,analysis
2411,摩羯,YAGI,202409032100,202409040500,30,强热带风暴,19.0,118.0,980,analysis
2411,摩羯,YAGI,202409032200,202409040600,30,强热带风暴,19.0,117.9,980,analysis
2411,摩羯,YAGI,202409032300,202409040700,30,强热带风暴,19.0,117.8,980,analysis
2411,摩羯,YAGI,202409040000,202409040800,35,台风,19.0,117.7,970,analysis
2411,摩羯,YAGI,202409040100,202409040900,35,台风,19.0,117.7,970,analysis
2411,摩羯,YAGI,202409040200,202409041000,35,台风,19.0,117.7,970,analysis
2411,摩羯,YAGI,202409040300,202409041100,38,台风,19.1,117.6,965,analysis
2411,摩羯,YAGI,202409040500,202409041300,38,台风,19.1,117.5,965,analysis
2411,摩羯,YAGI,202409040600,202409041400,42,强台风,19.1,117.4,955,analysis
2411,摩羯,YAGI,202409040700,202409041500,42,强台风,19.1,117.3,955,analysis
2411,摩羯,YAGI,202409040800,202409041600,42,强台风,19.1,117.2,955,analysis
2411,摩羯,YAGI,202409040900,202409041700,48,强台风,19.2,117.1,945,analysis
2411,摩羯,YAGI,202409041000,202409041800,48,强台风,19.2,117.1,945,analysis
2411,摩羯,YAGI,202409041100,202409041900,48,强台风,19.2,117.0,945,analysis
2411,摩羯,YAGI,202409041200,202409042000,50,强台风,19.2,116.9,940,analysis
2411,摩羯,YAGI,202409041300,202409042100,50,强台风,19.2,116.9,940,analysis
2411,摩羯,YAGI,202409041400,202409042200,50,强台风,19.2,116.7,940,analysis
2411,摩羯,YAGI,202409041500,202409042300,52,超强台风,19.2,116.5,935,analysis
2411,摩羯,YAGI,202409041600,202409050000,52,超强台风,19.2,116.4,935,analysis
2411,摩羯,YAGI,202409041700,202409050100,52,超强台风,19.2,116.4,935,analysis
2411,摩羯,YAGI,202409041800,202409050200,55,超强台风,19.1,116.3,930,analysis
2411,摩羯,YAGI,202409041900,202409050300,55,超强台风,19.1,116.2,930,analysis
2411,摩羯,YAGI,202409042000,202409050400,55,超强台风,19.0,116.1,930,analysis
2411,摩羯,YAGI,202409042100,202409050500,58,超强台风,19.0,116.0,925,analysis
2411,摩羯,YAGI,202409042200,202409050600,58,超强台风,19.0,115.9,925,analysis
2411,摩羯,YAGI,202409042300,202409050700,58,超强台风,19.0,115.8,925,analysis
2411,摩羯,YAGI,202409050000,202409050800,58,超强台风,19.0,115.7,925,analysis
2411,摩羯,YAGI,202409050100,202409050900,58,超强台风,19.1,115.7,925,analysis
2411,摩羯,YAGI,202409050200,202409051000,58,超强台风,19.1,115.6,925,analysis
2411,摩羯,YAGI,202409050300,202409051100,58,超强台风,19.2,115.5,925,analysis
2411,摩羯,YAGI,202409050400,202409051200,58,超强台风,19.2,115.4,925,analysis
2411,摩羯,YAGI,202409050500,202409051300,58,超强台风,19.2,115.3,925,analysis
2411,摩羯,YAGI,202409050600,202409051400,58,超强台风,19.2,115.2,925,analysis
2411,摩羯,YAGI,202409050700,202409051500,58,超强台风,19.3,115.1,925,analysis
2411,摩羯,YAGI,202409050800,202409051600,58,超强台风,19.3,114.9,925,analysis
2411,摩羯,YAGI,202409050900,202409051700,58,超强台风,19.3,114.8,925,analysis
2411,摩羯,YAGI,202409051000,202409051800,58,超强台风,19.3,114.6,925,analysis
2411,摩羯,YAGI,202409051100,202409051900,58,超强台风,19.3,114.4,925,analysis
2411,摩羯,YAGI,202409051200,202409052000,58,超强台风,19.3,114.2,925,analysis
2411,摩羯,YAGI,202409051300,202409052100,58,超强台风,19.3,113.9,925,analysis
2411,摩羯,YAGI,202409051400,202409052200,58,超强台风,19.3,113.8,925,analysis
2411,摩羯,YAGI,202409051500,202409052300,62,超强台风,19.3,113.5,915,analysis
2411,摩羯,YAGI,202409051600,202409060000,62,超强台风,19.3,113.3,915,analysis
2411,摩羯,YAGI,202409051700,202409060100,62,超强台风,19.3,113.2,915,analysis
2411,摩羯,YAGI,202409051800,202409060200,62,超强台风,19.3,113.0,915,analysis
2411,摩羯,YAGI,202409051900,202409060300,62,超强台风,19.2,112.9,915,analysis
2411,摩羯,YAGI,202409052000,202409060400,65,超强台风,19.2,112.8,910,analysis
2411,摩羯,YAGI,202409052100,202409060500,68,超强台风,19.2,112.7,905,analysis
2411,摩羯,YAGI,202409052200,202409060600,68,超强台风,19.2,112.5,905,analysis
2411,摩羯,YAGI,202409052300,202409060700,68,超强台风,19.2,112.4,905,analysis
2411,摩羯,YAGI,202409060000,202409060800,68,超强台风,19.2,112.3,905,analysis
2411,摩羯,YAGI,202409060100,202409060900,68,超强台风,19.2,112.2,905,analysis
2411,摩羯,YAGI,202409060200,202409061000,68,超强台风,19.3,112.1,905,analysis
2411,摩羯,YAGI,202409060300,202409061100,68,超强台风,19.4,112.0,905,analysis
2411,摩羯,YAGI,202409060400,202409061200,68,超强台风,19.5,111.8,905,analysis
2411,摩羯,YAGI,202409060500,202409061300,68,超强台风,19.6,111.7,905,analysis
2411,摩羯,YAGI,202409060600,202409061400,68,超强台风,19.7,111.4,905,analysis
2411,摩羯,YAGI,202409060700,202409061500,65,超强台风,19.8,111.2,910,analysis
2411,摩羯,YAGI,202409060800,202409061600,65,超强台风,19.8,111.1,910,analysis
2411,摩羯,YAGI,202409060900,202409061700,60,超强台风,19.9,110.8,920,analysis
2411,摩羯,YAGI,202409061000,202409061800,60,超强台风,20.0,110.7,920,analysis
2411,摩羯,YAGI,202409061100,202409061900,60,超强台风,20.0,110.4,920,analysis
2411,摩羯,YAGI,202409061200,202409062000,60,超强台风,20.0,110.3,920,analysis
2411,摩羯,YAGI,202409061300,202409062100,60,超强台风,20.1,110.1,920,analysis
2411,摩羯,YAGI,202409061400,202409062200,58,超强台风,20.2,110.0,925,analysis
2411,摩羯,YAGI,202409061500,202409062300,55,超强台风,20.3,109.8,930,analysis
2411,摩羯,YAGI,202409061600,202409070000,55,超强台风,20.3,109.5,930,analysis
2411,摩羯,YAGI,202409061700,202409070100,55,超强台风,20.3,109.3,930,analysis
2411,摩羯,YAGI,202409061800,202409070200,52,超强台风,20.3,109.1,935,analysis
2411,摩羯,YAGI,202409061900,202409070300,52,超强台风,20.3,108.9,935,analysis
2411,摩羯,YAGI,202409062000,202409070400,52,超强台风,20.3,108.7,935,analysis
2411,摩羯,YAGI,202409062100,202409070500,52,超强台风,20.3,108.6,935,analysis
2411,摩羯,YAGI,202409062200,202409070600,52,超强台风,20.3,108.5,935,analysis
2411,摩羯,YAGI,202409062300,202409070700,52,超强台风,20.3,108.4,935,analysis
2411,摩羯,YAGI,202409070000,202409070800,52,超强台风,20.4,108.2,935,analysis
2411,摩羯,YAGI,202409070100,202409070900,52,超强台风,20.4,108.0,935,analysis
2411,摩羯,YAGI,202409070200,202409071000,52,超强台风,20.5,107.8,935,analysis
2411,摩羯,YAGI,202409070300,202409071100,55,超强台风,20.6,107.7,930,analysis
2411,摩羯,YAGI,202409070400,202409071200,55,超强台风,20.6,107.5,930,analysis
2411,摩羯,YAGI,202409070500,202409071300,60,超强台风,20.7,107.4,920,analysis
2411,摩羯,YAGI,202409070600,202409071400,60,超强台风,20.8,107.2,920,analysis
2411,摩羯,YAGI,202409070700,202409071500,60,超强台风,20.8,107.0,920,analysis
2411,摩羯,YAGI,202409070900,202409071700,50,强台风,21.0,106.6,940,analysis
2411,摩羯,YAGI,202409071200,202409072000,40,台风,21.0,106.0,960,analysis
2411,摩羯,YAGI,202409071500,202409072300,35,台风,21.0,105.7,970,analysis
2411,摩羯,YAGI,202409071800,202409080200,30,强热带风暴,21.1,105.3,980,analysis
2411,摩羯,YAGI,202409072100,202409080500,20,热带风暴,21.0,105.0,995,analysis
2411,摩羯,YAGI,202409080000,202409080800,18,热带风暴,21.0,104.8,998,analysis
2411,摩羯,YAGI,202409080300,202409081100,15,热带低压,21.1,104.7,1000,analysis
2411,摩羯,YAGI,202409080600,202409081400,13,热带低压,21.4,104.2,1000,analysis
2410,珊珊,SHANSHAN,202408211800,202408220200,18,热带风暴,16.9,142.1,1000,analysis
2410,珊珊,SHANSHAN,202408212100,202408220500,18,热带风暴,17.0,141.9,1000,analysis
2410,珊珊,SHANSHAN,202408220000,202408220800,18,热带风暴,16.8,141.7,1000,analysis
2410,珊珊,SHANSHAN,202408220300,202408221100,18,热带风暴,16.8,141.6,1000,analysis
2410,珊珊,SHANSHAN,202408220600,202408221400,23,热带风暴,16.8,141.6,990,analysis
2410,珊珊,SHANSHAN,202408220900,202408221700,23,热带风暴,16.7,141.5,990,analysis
2410,珊珊,SHANSHAN,202408221200,202408222000,25,强热带风暴,16.7,141.4,985,analysis
2410,珊珊,SHANSHAN,202408221500,202408222300,25,强热带风暴,16.7,141.4,985,analysis
2410,珊珊,SHANSHAN,202408221800,202408230200,25,强热带风暴,16.7,141.4,985,analysis
2410,珊珊,SHANSHAN,202408222100,202408230500,25,强热带风暴,16.9,141.3,985,analysis
2410,珊珊,SHANSHAN,202408230000,202408230800,28,强热带风暴,17.6,141.3,982,analysis
2410,珊珊,SHANSHAN,202408230300,202408231100,28,强热带风暴,17.9,141.2,982,analysis
2410,珊珊,SHANSHAN,202408230600,202408231400,30,强热带风暴,18.0,141.2,980,analysis
2410,珊珊,SHANSHAN,202408230900,202408231700,30,强热带风暴,18.1,141.2,980,analysis
2410,珊珊,SHANSHAN,202408231200,202408232000,30,强热带风暴,18.1,141.2,980,analysis
2410,珊珊,SHANSHAN,202408231500,202408232300,30,强热带风暴,18.4,141.2,980,analysis
2410,珊珊,SHANSHAN,202408231800,202408240200,30,强热带风暴,18.9,141.2,980,analysis
2410,珊珊,SHANSHAN,202408232100,202408240500,30,强热带风暴,19.5,141.2,980,analysis
2410,珊珊,SHANSHAN,202408240000,202408240800,30,强热带风暴,19.9,141.2,980,analysis
2410,珊珊,SHANSHAN,202408240300,202408241100,33,台风,20.5,141.3,975,analysis
2410,珊珊,SHANSHAN,202408240600,202408241400,33,台风,21.6,141.3,975,analysis
2410,珊珊,SHANSHAN,202408240900,202408241700,33,台风,22.0,141.1,975,analysis
2410,珊珊,SHANSHAN,202408241200,202408242000,33,台风,22.4,140.9,975,analysis
2410,珊珊,SHANSHAN,202408241500,202408242300,33,台风,23.1,140.7,975,analysis
2410,珊珊,SHANSHAN,202408241800,202408250200,33,台风,23.7,140.3,975,analysis
2410,珊珊,SHANSHAN,202408242100,202408250500,33,台风,24.1,139.6,975,analysis
2410,珊珊,SHANSHAN,202408250000,202408250800,33,台风,24.6,139.1,975,analysis
2410,珊珊,SHANSHAN,202408250300,202408251100,33,台风,25.1,138.8,975,analysis
2410,珊珊,SHANSHAN,202408250600,202408251400,35,台风,25.7,137.9,970,analysis
2410,珊珊,SHANSHAN,202408250900,202408251700,35,台风,26.2,136.9,970,analysis
2410,珊珊,SHANSHAN,202408251200,202408252000,35,台风,26.3,136.3,970,analysis
2410,珊珊,SHANSHAN,202408251500,202408252300,38,台风,26.6,135.7,965,analysis
2410,珊珊,SHANSHAN,202408251800,202408260200,38,台风,26.9,134.9,965,analysis
2410,珊珊,SHANSHAN,202408252100,202408260500,35,台风,27.2,134.2,970,analysis
2410,珊珊,SHANSHAN,202408260000,202408260800,35,台风,27.2,133.8,970,analysis
2410,珊珊,SHANSHAN,202408260300,202408261100,35,台风,27.5,133.2,970,analysis
2410,珊珊,SHANSHAN,202408260600,202408261400,38,台风,27.5,132.7,965,analysis
2410,珊珊,SHANSHAN,202408260900,202408261700,38,台风,27.6,132.4,965,analysis
2410,珊珊,SHANSHAN,202408261200,202408262000,40,台风,27.8,131.8,960,analysis
2410,珊珊,SHANSHAN,202408261500,202408262300,40,台风,27.9,131.5,960,analysis
2410,珊珊,SHANSHAN,202408261800,202408270200,45,强台风,28.0,131.1,950,analysis
2410,珊珊,SHANSHAN,202408262100,202408270500,45,强台风,28.0,131.0,950,analysis
2410,珊珊,SHANSHAN,202408270000,202408270800,48,强台风,28.2,130.8,945,analysis
2410,珊珊,SHANSHAN,202408270300,202408271100,48,强台风,28.3,130.5,945,analysis
2410,珊珊,SHANSHAN,202408270600,202408271400,48,强台风,28.5,130.4,945,analysis
2410,珊珊,SHANSHAN,202408270900,202408271700,52,超强台风,28.6,130.3,935,analysis
2410,珊珊,SHANSHAN,202408271200,202408272000,52,超强台风,28.7,130.3,935,analysis
2410,珊珊,SHANSHAN,202408271500,202408272300,52,超强台风,28.8,130.3,935,analysis
2410,珊珊,SHANSHAN,202408271800,202408280200,52,超强台风,28.9,130.2,935,analysis
2410,珊珊,SHANSHAN,202408272100,202408280500,52,超强台风,29.0,129.9,935,analysis
2410,珊珊,SHANSHAN,202408280000,202408280800,52,超强台风,29.2,130.2,935,analysis
2410,珊珊,SHANSHAN,202408280300,202408281100,52,超强台风,29.5,130.2,935,analysis
2410,珊珊,SHANSHAN,202408280600,202408281400,52,超强台风,29.9,130.1,935,analysis
2410,珊珊,SHANSHAN,202408280900,202408281700,52,超强台风,30.1,130.0,935,analysis
2410,珊珊,SHANSHAN,202408281200,202408282000,50,强台风,30.6,130.1,940,analysis
2410,珊珊,SHANSHAN,202408281500,202408282300,50,强台风,30.9,130.0,940,analysis
2410,珊珊,SHANSHAN,202408281800,202408290200,48,强台风,31.3,130.0,945,analysis
2410,珊珊,SHANSHAN,202408282100,202408290500,48,强台风,31.6,130.1,945,analysis
2410,珊珊,SHANSHAN,202408290000,202408290800,40,台风,32.0,130.4,955,analysis
2410,珊珊,SHANSHAN,202408290300,202408291100,40,台风,32.6,130.4,965,analysis
2410,珊珊,SHANSHAN,202408290600,202408291400,30,强热带风暴,32.9,130.2,980,analysis
2410,珊珊,SHANSHAN,202408290900,202408291700,28,强热带风暴,32.9,130.3,982,analysis
2410,珊珊,SHANSHAN,202408291200,202408292000,28,强热带风暴,32.9,130.6,982,analysis
2410,珊珊,SHANSHAN,202408291500,202408292300,28,强热带风暴,33.0,130.7,982,analysis
2410,珊珊,SHANSHAN,202408291800,202408300200,20,热带风暴,33.1,130.8,990,analysis
2410,珊珊,SHANSHAN,202408292100,202408300500,20,热带风暴,33.2,131.2,990,analysis
2410,珊珊,SHANSHAN,202408300000,202408300800,18,热带风暴,33.3,131.7,995,analysis
2410,珊珊,SHANSHAN,202408300300,202408301100,18,热带风暴,33.5,132.2,995,analysis
2410,珊珊,SHANSHAN,202408300600,202408301400,18,热带风暴,33.7,132.5,995,analysis
2410,珊珊,SHANSHAN,202408300900,202408301700,18,热带风暴,33.8,132.6,995,analysis
2410,珊珊,SHANSHAN,202408301200,202408302000,15,热带低压,34.2,133.4,998,analysis
2410,珊珊,SHANSHAN,202408310000,202408310800,15,热带低压,33.7,135.3,998,forecast
2409,云雀,JONGDARI,202408182100,202408190500,18,热带风暴,25.0,125.9,998,analysis
2409,云雀,JONGDARI,202408182200,202408190600,18,热带风暴,25.1,125.9,998,analysis
2409,云雀,JONGDARI,202408182300,202408190700,18,热带风暴,25.2,126.0,998,analysis
2409,云雀,JONGDARI,202408190000,202408190800,18,热带风暴,25.2,126.0,998,analysis
2409,云雀,JONGDARI,202408190100,202408190900,18,热带风暴,25.2,126.0,998,analysis
2409,云雀,JONGDARI,202408190200,202408191000,18,热带风暴,25.2,126.0,998,analysis
2409,云雀,JONGDARI,202408190300,202408191100,18,热带风暴,25.5,126.1,998,analysis
2409,云雀,JONGDARI,202408190400,202408191200,18,热带风暴,25.9,126.1,998,analysis
2409,云雀,JONGDARI,202408190500,202408191300,18,热带风暴,26.1,126.0,998,analysis
2409,云雀,JONGDARI,202408190600,202408191400,18,热带风暴,26.3,126.0,998,analysis
2409,云雀,JONGDARI,202408190700,202408191500,18,热带风暴,26.5,126.0,998,analysis
2409,云雀,JONGDARI,202408190800,202408191600,18,热带风暴,26.7,125.9,998,analysis
2409,云雀,JONGDARI,202408190900,202408191700,18,热带风暴,26.9,125.9,998,analysis
2409,云雀,JONGDARI,202408191000,202408191800,18,热带风暴,27.2,125.9,998,analysis
2409,云雀,JONGDARI,202408191100,202408191900,18,热带风暴,27.4,125.9,998,analysis
2409,云雀,JONGDARI,202408191200,202408192000,18,热带风暴,27.6,125.8,998,analysis
2409,云雀,JONGDARI,202408191300,202408192100,18,热带风暴,27.8,125.8,998,analysis
2409,云雀,JONGDARI,202408191400,202408192200,18,热带风暴,28.0,125.8,998,analysis
2409,云雀,JONGDARI,202408191500,202408192300,18,热带风暴,28.2,125.7,998,analysis
2409,云雀,JONGDARI,202408191600,202408200000,18,热带风暴,28.4,125.7,998,analysis
2409,云雀,JONGDARI,202408191700,202408200100,18,热带风暴,28.7,125.6,998,analysis
2409,云雀,JONGDARI,202408191800,202408200200,18,热带风暴,29.1,125.6,998,analysis
2409,云雀,JONGDARI,202408191900,202408200300,18,热带风暴,29.4,125.6,998,analysis
2409,云雀,JONGDARI,202408192000,202408200400,18,热带风暴,29.6,125.5,998,analysis
2409,云雀,JONGDARI,202408192100,202408200500,18,热带风暴,30.0,125.5,998,analysis
2409,云雀,JONGDARI,202408192200,202408200600,18,热带风暴,30.3,125.5,998,analysis
2409,云雀,JONGDARI,202408192300,202408200700,18,热带风暴,30.6,125.5,998,analysis
2409,云雀,JONGDARI,202408200000,202408200800,18,热带风暴,30.8,125.5,998,analysis
2409,云雀,JONGDARI,202408200100,202408200900,18,热带风暴,31.1,125.5,998,analysis
2409,云雀,JONGDARI,202408200200,202408201000,18,热带风暴,31.4,125.5,998,analysis
2409,云雀,JONGDARI,202408200300,202408201100,18,热带风暴,31.6,125.5,998,analysis
2409,云雀,JONGDARI,202408200400,202408201200,18,热带风暴,31.8,125.5,998,analysis
2409,云雀,JONGDARI,202408200500,202408201300,18,热带风暴,32.1,125.5,998,analysis
2409,云雀,JONGDARI,202408200600,202408201400,18,热带风暴,32.5,125.5,998,analysis
2409,云雀,JONGDARI,202408200700,202408201500,18,热带风暴,32.7,125.5,998,analysis
2409,云雀,JONGDARI,202408200800,202408201600,18,热带风暴,32.9,125.5,998,analysis
2409,云雀,JONGDARI,202408200900,202408201700,15,热带低压,33.3,125.5,1000,analysis
2409,云雀,JONGDARI,202408201200,202408202000,15,热带低压,34.1,125.6,1000,analysis
2409,云雀,JONGDARI,202408201800,202408210200,15,热带低压,35.8,125.9,1000,forecast
2409,云雀,JONGDARI,202408210000,202408210800,12,热带低压,37.5,126.4,1002,forecast
2408,悟空,WUKONG,202408130600,202408131400,18,热带风暴,27.9,150.0,998,analysis
2408,悟空,WUKONG,202408130900,202408131700,18,热带风暴,28.0,149.9,998,analysis
2408,悟空,WUKONG,202408131200,202408132000,18,热带风暴,28.1,149.8,998,analysis
2408,悟空,WUKONG,202408131500,202408132300,18,热带风暴,28.3,149.7,998,analysis
2408,悟空,WUKONG,202408131800,202408140200,18,热带风暴,28.4,149.6,998,analysis
2408,悟空,WUKONG,202408132100,202408140500,18,热带风暴,28.5,149.5,998,analysis
2408,悟空,WUKONG,202408140000,202408140800,18,热带风暴,29.2,149.3,998,analysis
2408,悟空,WUKONG,202408140300,202408141100,18,热带风暴,29.7,149.0,998,analysis
2408,悟空,WUKONG,202408140600,202408141400,18,热带风暴,30.4,148.0,998,analysis
2408,悟空,WUKONG,202408141800,202408150200,18,热带风暴,34.2,147.2,998,forecast
2408,悟空,WUKONG,202408150600,202408151400,15,热带低压,37.7,148.2,1000,forecast
2407,安比,AMPIL,202408121800,202408130200,18,热带风暴,23.6,136.8,998,analysis
2407,安比,AMPIL,202408122100,202408130500,18,热带风暴,23.9,137.2,998,analysis
2407,安比,AMPIL,202408130000,202408130800,23,热带风暴,25.0,138.2,990,analysis
2407,安比,AMPIL,202408130300,202408131100,23,热带风暴,25.1,138.3,990,analysis
2407,安比,AMPIL,202408130600,202408131400,25,强热带风暴,25.4,138.7,985,analysis
2407,安比,AMPIL,202408130900,202408131700,25,强热带风暴,25.7,138.9,985,analysis
2407,安比,AMPIL,202408131200,202408132000,28,强热带风暴,25.7,138.9,982,analysis
2407,安比,AMPIL,202408131500,202408132300,28,强热带风暴,25.8,139.2,982,analysis
2407,安比,AMPIL,202408131800,202408140200,28,强热带风暴,25.9,139.3,982,analysis
2407,安比,AMPIL,202408132100,202408140500,30,强热带风暴,26.0,139.7,980,analysis
2407,安比,AMPIL,202408140000,202408140800,30,强热带风暴,26.0,139.9,980,analysis
2407,安比,AMPIL,202408140300,202408141100,30,强热带风暴,26.2,140.5,980,analysis
2407,安比,AMPIL,202408140600,202408141400,30,强热带风暴,26.6,140.8,980,analysis
2407,安比,AMPIL,202408140900,202408141700,30,强热带风暴,27.0,141.1,980,analysis
2407,安比,AMPIL,202408141200,202408142000,30,强热带风暴,27.5,141.2,980,analysis
2407,安比,AMPIL,202408141500,202408142300,33,台风,28.0,141.3,975,analysis
2407,安比,AMPIL,202408141800,202408150200,33,台风,28.5,141.3,975,analysis
2407,安比,AMPIL,202408142100,202408150500,33,台风,29.1,141.1,975,analysis
2407,安比,AMPIL,202408150000,202408150800,33,台风,29.5,141.1,975,analysis
2407,安比,AMPIL,202408150300,202408151100,33,台风,29.9,141.1,975,analysis
2407,安比,AMPIL,202408150600,202408151400,38,台风,30.5,141.1,965,analysis
2407,安比,AMPIL,202408150900,202408151700,40,台风,31.1,141.1,960,analysis
2407,安比,AMPIL,202408151200,202408152000,45,强台风,31.5,140.8,950,analysis
2407,安比,AMPIL,202408151500,202408152300,45,强台风,32.0,140.8,950,analysis
2407,安比,AMPIL,202408151800,202408160200,45,强台风,32.5,140.8,950,analysis
2407,安比,AMPIL,202408152100,202408160500,48,强台风,33.1,140.9,940,analysis
2407,安比,AMPIL,202408160000,202408160800,48,强台风,33.5,140.7,940,analysis
2407,安比,AMPIL,202408160300,202408161100,48,强台风,33.8,140.7,940,analysis
2407,安比,AMPIL,202408160600,202408161400,48,强台风,34.1,141.0,940,analysis
2407,安比,AMPIL,202408160900,202408161700,48,强台风,34.5,141.6,940,analysis
2407,安比,AMPIL,202408161200,202408162000,48,强台风,34.9,141.9,940,analysis
2407,安比,AMPIL,202408161500,202408162300,45,强台风,35.4,142.3,950,analysis
2407,安比,AMPIL,202408161800,202408170200,45,强台风,35.8,142.8,950,analysis
2407,安比,AMPIL,202408162100,202408170500,42,强台风,36.1,143.1,955,analysis
2407,安比,AMPIL,202408170000,202408170800,40,台风,36.6,143.7,960,analysis
2407,安比,AMPIL,202408170300,202408171100,40,台风,37.1,144.2,960,analysis
2407,安比,AMPIL,202408170600,202408171400,35,台风,37.3,145.0,970,analysis
2407,安比,AMPIL,202408170900,202408171700,35,台风,37.4,146.3,970,analysis
2407,安比,AMPIL,202408171200,202408172000,35,台风,37.6,147.3,970,analysis
2407,安比,AMPIL,202408171500,202408172300,35,台风,38.4,148.6,970,analysis
2407,安比,AMPIL,202408171800,202408180200,33,台风,38.5,149.6,975,analysis
2407,安比,AMPIL,202408172100,202408180500,33,台风,39.0,151.2,975,analysis
2407,安比,AMPIL,202408180000,202408180800,30,强热带风暴,40.0,152.3,980,analysis
2407,安比,AMPIL,202408180300,202408181100,28,强热带风暴,40.1,154.0,982,analysis
2407,安比,AMPIL,202408180600,202408181400,25,强热带风暴,40.4,155.1,985,analysis
2407,安比,AMPIL,202408180900,202408181700,23,热带风暴,41.2,156.8,990,analysis
2407,安比,AMPIL,202408181200,202408182000,23,热带风暴,41.8,158.0,990,analysis
2407,安比,AMPIL,202408190000,202408190800,20,热带风暴,44.0,162.9,990,forecast
2406,山神,SON-TINH,202408111200,202408112000,18,热带风暴,28.8,155.0,998,analysis
2406,山神,SON-TINH,202408111500,202408112300,18,热带风暴,29.6,154.9,998,analysis
2406,山神,SON-TINH,202408111800,202408120200,18,热带风暴,30.1,154.4,998,analysis
2406,山神,SON-TINH,202408112100,202408120500,18,热带风暴,30.7,153.9,998,analysis
2406,山神,SON-TINH,202408120000,202408120800,18,热带风暴,31.3,153.1,998,analysis
2406,山神,SON-TINH,202408120300,202408121100,18,热带风暴,32.1,152.4,998,analysis
2406,山神,SON-TINH,202408120600,202408121400,18,热带风暴,32.4,151.5,998,analysis
2406,山神,SON-TINH,202408120900,202408121700,18,热带风暴,32.6,151.2,998,analysis
2406,山神,SON-TINH,202408121200,202408122000,18,热带风暴,32.8,150.5,998,analysis
2406,山神,SON-TINH,202408121500,202408122300,18,热带风暴,33.1,149.8,998,analysis
2406,山神,SON-TINH,202408121800,202408130200,18,热带风暴,34.2,149.4,998,analysis
2406,山神,SON-TINH,202408122100,202408130500,18,热带风暴,34.6,148.7,998,analysis
2406,山神,SON-TINH,202408130000,202408130800,18,热带风暴,35.2,147.9,998,analysis
2406,山神,SON-TINH,202408131200,202408132000,15,热带低压,37.4,146.0,1000,forecast
2405,玛莉亚,MARIA,202408072100,202408080500,18,热带风暴,25.9,143.1,996,analysis
2405,玛莉亚,MARIA,202408080000,202408080800,18,热带风暴,26.5,144.0,996,analysis
2405,玛莉亚,MARIA,202408080300,202408081100,23,热带风暴,26.9,144.5,985,analysis
2405,玛莉亚,MARIA,202408080600,202408081400,23,热带风暴,27.6,144.7,985,analysis
2405,玛莉亚,MARIA,202408080900,202408081700,25,强热带风暴,28.2,145.0,982,analysis
2405,玛莉亚,MARIA,202408081200,202408082000,28,强热带风暴,28.9,145.5,980,analysis
2405,玛莉亚,MARIA,202408081500,202408082300,28,强热带风暴,29.5,145.6,980,analysis
2405,玛莉亚,MARIA,202408081800,202408090200,28,强热带风暴,30.0,145.5,980,analysis
2405,玛莉亚,MARIA,202408082100,202408090500,30,强热带风暴,30.3,145.8,975,analysis
2405,玛莉亚,MARIA,202408090000,202408090800,30,强热带风暴,30.8,146.1,975,analysis
2405,玛莉亚,MARIA,202408090300,202408091100,30,强热带风暴,31.3,146.2,975,analysis
2405,玛莉亚,MARIA,202408090600,202408091400,30,强热带风暴,32.4,146.1,975,analysis
2405,玛莉亚,MARIA,202408090900,202408091700,30,强热带风暴,32.7,146.1,975,analysis
2405,玛莉亚,MARIA,202408091200,202408092000,30,强热带风暴,33.2,145.9,975,analysis
2405,玛莉亚,MARIA,202408091500,202408092300,30,强热带风暴,33.4,146.0,975,analysis
2405,玛莉亚,MARIA,202408091800,202408100200,30,强热带风暴,34.1,146.0,975,analysis
2405,玛莉亚,MARIA,202408092100,202408100500,30,强热带风暴,34.5,146.0,975,analysis
2405,玛莉亚,MARIA,202408100000,202408100800,30,强热带风暴,34.9,146.0,975,analysis
2405,玛莉亚,MARIA,202408100300,202408101100,30,强热带风暴,35.6,145.7,975,analysis
2405,玛莉亚,MARIA,202408100600,202408101400,28,强热带风暴,35.7,145.2,982,analysis
2405,玛莉亚,MARIA,202408100900,202408101700,25,强热带风暴,36.1,145.1,985,analysis
2405,玛莉亚,MARIA,202408101200,202408102000,25,强热带风暴,36.4,145.0,985,analysis
2405,玛莉亚,MARIA,202408101500,202408102300,25,强热带风暴,36.4,145.0,985,analysis
2405,玛莉亚,MARIA,202408101800,202408110200,25,强热带风暴,36.6,145.0,985,analysis
2405,玛莉亚,MARIA,202408102100,202408110500,25,强热带风暴,37.1,144.8,985,analysis
2405,玛莉亚,MARIA,202408110000,202408110800,25,强热带风暴,37.5,144.5,985,analysis
2405,玛莉亚,MARIA,202408110300,202408111100,25,强热带风暴,37.6,144.3,985,analysis
2405,玛莉亚,MARIA,202408110600,202408111400,25,强热带风暴,37.7,143.9,985,analysis
2405,玛莉亚,MARIA,202408110900,202408111700,25,强热带风暴,37.8,143.5,982,analysis
2405,玛莉亚,MARIA,202408111200,202408112000,25,强热带风暴,37.9,143.4,982,analysis
2405,玛莉亚,MARIA,202408111500,202408112300,25,强热带风暴,38.1,143.0,982,analysis
2405,玛莉亚,MARIA,202408111800,202408120200,25,强热带风暴,38.2,142.7,982,analysis
2405,玛莉亚,MARIA,202408112100,202408120500,25,强热带风暴,38.6,142.2,982,analysis
2405,玛莉亚,MARIA,202408120000,202408120800,25,强热带风暴,39.0,141.7,988,analysis
2405,玛莉亚,MARIA,202408120300,202408121100,23,热带风暴,39.3,141.2,992,analysis
2405,玛莉亚,MARIA,202408120600,202408121400,23,热带风暴,39.7,140.8,992,analysis
2405,玛莉亚,MARIA,202408120900,202408121700,23,热带风暴,40.0,140.5,994,analysis
2405,玛莉亚,MARIA,202408121200,202408122000,20,热带风暴,40.3,139.9,996,analysis
2405,玛莉亚,MARIA,202408121500,202408122300,18,热带风暴,40.5,139.7,998,analysis
2405,玛莉亚,MARIA,202408130300,202408131100,18,热带风暴,41.4,138.8,998,forecast
2405,玛莉亚,MARIA,202408131500,202408132300,15,热带低压,41.6,138.8,1002,forecast
2404,派比安,PRAPIROON,202407190600,202407191400,12,热带低压,14.1,118.0,1004,analysis
2404,派比安,PRAPIROON,202407190900,202407191700,12,热带低压,14.7,117.1,1004,analysis
2404,派比安,PRAPIROON,202407191200,202407192000,12,热带低压,14.8,116.4,1004,analysis
2404,派比安,PRAPIROON,202407191500,202407192300,12,热带低压,14.9,116.0,1004,analysis
2404,派比安,PRAPIROON,202407191800,202407200200,12,热带低压,14.9,115.9,1004,analysis
2404,派比安,PRAPIROON,202407192100,202407200500,12,热带低压,15.1,115.6,1004,analysis
2404,派比安,PRAPIROON,202407200000,202407200800,12,热带低压,15.8,114.6,1004,analysis
2404,派比安,PRAPIROON,202407200300,202407201100,12,热带低压,16.0,114.1,1004,analysis
2404,派比安,PRAPIROON,202407200600,202407201400,12,热带低压,16.2,113.5,1004,analysis
2404,派比安,PRAPIROON,202407200900,202407201700,12,热带低压,16.5,112.6,1004,analysis
2404,派比安,PRAPIROON,202407201200,202407202000,15,热带低压,16.6,112.4,1000,analysis
2404,派比安,PRAPIROON,202407201500,202407202300,15,热带低压,16.4,111.8,1000,analysis
2404,派比安,PRAPIROON,202407201800,202407210200,15,热带低压,16.4,111.7,1000,analysis
2404,派比安,PRAPIROON,202407202300,202407210700,18,热带风暴,16.4,111.3,995,analysis
2404,派比安,PRAPIROON,202407210000,202407210800,18,热带风暴,16.4,111.3,995,analysis
2404,派比安,PRAPIROON,202407210100,202407210900,18,热带风暴,16.4,111.3,995,analysis
2404,派比安,PRAPIROON,202407210200,202407211000,18,热带风暴,16.4,111.3,995,analysis
2404,派比安,PRAPIROON,202407210300,202407211100,20,热带风暴,16.5,111.2,992,analysis
2404,派比安,PRAPIROON,202407210400,202407211200,20,热带风暴,16.6,111.2,992,analysis
2404,派比安,PRAPIROON,202407210500,202407211300,20,热带风暴,16.8,111.2,992,analysis
2404,派比安,PRAPIROON,202407210600,202407211400,20,热带风暴,17.0,111.1,992,analysis
2404,派比安,PRAPIROON,202407210700,202407211500,20,热带风暴,17.2,111.0,992,analysis
2404,派比安,PRAPIROON,202407210800,202407211600,20,热带风暴,17.4,110.9,992,analysis
2404,派比安,PRAPIROON,202407210900,202407211700,23,热带风暴,17.4,110.9,990,analysis
2404,派比安,PRAPIROON,202407211000,202407211800,23,热带风暴,17.6,110.9,990,analysis
2404,派比安,PRAPIROON,202407211100,202407211900,23,热带风暴,17.8,110.9,990,analysis
2404,派比安,PRAPIROON,202407211200,202407212000,25,强热带风暴,17.9,110.9,985,analysis
2404,派比安,PRAPIROON,202407211300,202407212100,25,强热带风暴,18.0,110.8,985,analysis
2404,派比安,PRAPIROON,202407211400,202407212200,25,强热带风暴,18.1,110.7,985,analysis
2404,派比安,PRAPIROON,202407211500,202407212300,25,强热带风暴,18.2,110.6,985,analysis
2404,派比安,PRAPIROON,202407211600,202407220000,28,强热带风暴,18.4,110.4,985,analysis
2404,派比安,PRAPIROON,202407211700,202407220100,28,强热带风暴,18.6,110.3,985,analysis
2404,派比安,PRAPIROON,202407211800,202407220200,28,强热带风暴,18.8,110.2,985,analysis
2404,派比安,PRAPIROON,202407211900,202407220300,25,强热带风暴,19.0,110.0,985,analysis
2404,派比安,PRAPIROON,202407212000,202407220400,25,强热带风暴,19.2,109.8,985,analysis
2404,派比安,PRAPIROON,202407212100,202407220500,23,热带风暴,19.4,109.7,990,analysis
2404,派比安,PRAPIROON,202407212200,202407220600,23,热带风暴,19.5,109.5,990,analysis
2404,派比安,PRAPIROON,202407212300,202407220700,23,热带风暴,19.5,109.3,990,analysis
2404,派比安,PRAPIROON,202407220000,202407220800,23,热带风暴,19.5,109.2,990,analysis
2404,派比安,PRAPIROON,202407220100,202407220900,23,热带风暴,19.6,109.1,990,analysis
2404,派比安,PRAPIROON,202407220200,202407221000,23,热带风暴,19.7,109.0,990,analysis
2404,派比安,PRAPIROON,202407220300,202407221100,25,强热带风暴,19.8,109.0,988,analysis
2404,派比安,PRAPIROON,202407220400,202407221200,25,强热带风暴,19.9,108.9,988,analysis
2404,派比安,PRAPIROON,202407220500,202407221300,25,强热带风暴,20.0,108.8,988,analysis
2404,派比安,PRAPIROON,202407220600,202407221400,28,强热带风暴,20.0,108.6,985,analysis
2404,派比安,PRAPIROON,202407220700,202407221500,28,强热带风暴,20.0,108.6,985,analysis
2404,派比安,PRAPIROON,202407220800,202407221600,28,强热带风暴,20.1,108.4,985,analysis
2404,派比安,PRAPIROON,202407220900,202407221700,30,强热带风暴,20.1,108.4,982,analysis
2404,派比安,PRAPIROON,202407221000,202407221800,30,强热带风暴,20.2,108.4,982,analysis
2404,派比安,PRAPIROON,202407221100,202407221900,30,强热带风暴,20.3,108.4,982,analysis
2404,派比安,PRAPIROON,202407221200,202407222000,30,强热带风暴,20.5,108.2,982,analysis
2404,派比安,PRAPIROON,202407221300,202407222100,30,强热带风暴,20.5,108.1,982,analysis
2404,派比安,PRAPIROON,202407221400,202407222200,30,强热带风暴,20.5,108.1,982,analysis
2404,派比安,PRAPIROON,202407221500,202407222300,30,强热带风暴,20.6,108.0,982,analysis
2404,派比安,PRAPIROON,202407221600,202407230000,30,强热带风暴,20.7,107.9,982,analysis
2404,派比安,PRAPIROON,202407221700,202407230100,30,强热带风暴,20.7,107.9,982,analysis
2404,派比安,PRAPIROON,202407221800,202407230200,28,强热带风暴,20.7,107.7,985,analysis
2404,派比安,PRAPIROON,202407221900,202407230300,28,强热带风暴,20.9,107.6,985,analysis
2404,派比安,PRAPIROON,202407222000,202407230400,28,强热带风暴,21.0,107.5,985,analysis
2404,派比安,PRAPIROON,202407222100,202407230500,25,强热带风暴,21.3,107.7,988,analysis
2404,派比安,PRAPIROON,202407222200,202407230600,25,强热带风暴,21.3,107.7,988,analysis
2404,派比安,PRAPIROON,202407222300,202407230700,23,热带风暴,21.4,107.6,990,analysis
2404,派比安,PRAPIROON,202407230000,202407230800,20,热带风暴,21.4,107.5,995,analysis
2404,派比安,PRAPIROON,202407230300,202407231100,15,热带低压,21.4,107.5,1000,analysis
2404,派比安,PRAPIROON,202407230600,202407231400,12,热带低压,21.6,107.3,1000,analysis
2404,派比安,PRAPIROON,202407230900,202407231700,12,热带低压,21.6,107.1,1000,analysis
2403,格美,GAEMI,202407191200,202407192000,15,热带低压,13.7,131.4,1004,analysis
2403,格美,GAEMI,202407191500,202407192300,15,热带低压,13.9,130.8,1004,analysis
2403,格美,GAEMI,202407191800,202407200200,15,热带低压,14.5,130.0,1004,analysis
2403,格美,GAEMI,202407192100,202407200500,15,热带低压,14.7,129.7,1004,analysis
2403,格美,GAEMI,202407200000,202407200800,15,热带低压,15.3,128.6,1002,analysis
2403,格美,GAEMI,202407200300,202407201100,15,热带低压,15.4,128.3,1002,analysis
2403,格美,GAEMI,202407200600,202407201400,18,热带风暴,15.6,127.7,998,analysis
2403,格美,GAEMI,202407200900,202407201700,18,热带风暴,15.6,127.7,998,analysis
2403,格美,GAEMI,202407201200,202407202000,18,热带风暴,15.8,127.6,998,analysis
2403,格美,GAEMI,202407201500,202407202300,18,热带风暴,16.1,127.4,998,analysis
2403,格美,GAEMI,202407201800,202407210200,18,热带风暴,16.3,126.9,995,analysis
2403,格美,GAEMI,202407202100,202407210500,20,热带风暴,16.5,126.3,992,analysis
2403,格美,GAEMI,202407210000,202407210800,20,热带风暴,16.7,125.4,992,analysis
2403,格美,GAEMI,202407210300,202407211100,23,热带风暴,16.7,125.2,990,analysis
2403,格美,GAEMI,202407210600,202407211400,28,强热带风暴,16.9,125.1,982,analysis
2403,格美,GAEMI,202407210900,202407211700,28,强热带风暴,17.0,125.1,982,analysis
2403,格美,GAEMI,202407211200,202407212000,28,强热带风暴,17.1,125.0,982,analysis
2403,格美,GAEMI,202407211500,202407212300,28,强热带风暴,17.1,125.0,982,analysis
2403,格美,GAEMI,202407211800,202407220200,28,强热带风暴,17.2,125.0,982,analysis
2403,格美,GAEMI,202407212100,202407220500,28,强热带风暴,17.3,125.0,982,analysis
2403,格美,GAEMI,202407220000,202407220800,28,强热带风暴,17.4,125.0,982,analysis
2403,格美,GAEMI,202407220300,202407221100,28,强热带风暴,17.6,125.0,982,analysis
2403,格美,GAEMI,202407220600,202407221400,30,强热带风暴,17.9,125.0,980,analysis
2403,格美,GAEMI,202407220900,202407221700,30,强热带风暴,18.1,125.1,980,analysis
2403,格美,GAEMI,202407221200,202407222000,35,台风,18.5,125.2,970,analysis
2403,格美,GAEMI,202407221500,202407222300,38,台风,18.6,125.2,965,analysis
2403,格美,GAEMI,202407221800,202407230200,40,台风,18.7,125.2,960,analysis
2403,格美,GAEMI,202407222100,202407230500,40,台风,19.2,125.2,960,analysis
2403,格美,GAEMI,202407230000,202407230800,40,台风,19.6,125.1,960,analysis
2403,格美,GAEMI,202407230300,202407231100,40,台风,19.9,125.0,960,analysis
2403,格美,GAEMI,202407230600,202407231400,40,台风,20.5,125.0,960,analysis
2403,格美,GAEMI,202407230900,202407231700,42,强台风,21.2,124.9,955,analysis
2403,格美,GAEMI,202407231000,202407231800,42,强台风,21.4,124.8,955,analysis
2403,格美,GAEMI,202407231100,202407231900,42,强台风,21.6,124.8,955,analysis
2403,格美,GAEMI,202407231200,202407232000,42,强台风,21.9,124.6,955,analysis
2403,格美,GAEMI,202407231300,202407232100,42,强台风,22.1,124.5,955,analysis
2403,格美,GAEMI,202407231400,202407232200,42,强台风,22.3,124.4,955,analysis
2403,格美,GAEMI,202407231500,202407232300,42,强台风,22.5,124.1,955,analysis
2403,格美,GAEMI,202407231600,202407240000,45,强台风,22.6,123.9,950,analysis
2403,格美,GAEMI,202407231700,202407240100,45,强台风,22.7,123.7,950,analysis
2403,格美,GAEMI,202407231800,202407240200,50,强台风,22.8,123.6,940,analysis
2403,格美,GAEMI,202407231900,202407240300,50,强台风,22.8,123.6,940,analysis
2403,格美,GAEMI,202407232000,202407240400,50,强台风,22.9,123.5,940,analysis
2403,格美,GAEMI,202407232100,202407240500,50,强台风,23.0,123.5,940,analysis
2403,格美,GAEMI,202407232200,202407240600,50,强台风,23.1,123.4,940,analysis
2403,格美,GAEMI,202407232300,202407240700,50,强台风,23.2,123.4,940,analysis
2403,格美,GAEMI,202407240000,202407240800,52,超强台风,23.4,123.4,935,analysis
2403,格美,GAEMI,202407240100,202407240900,55,超强台风,23.6,123.2,930,analysis
2403,格美,GAEMI,202407240200,202407241000,55,超强台风,23.7,123.1,930,analysis
2403,格美,GAEMI,202407240300,202407241100,55,超强台风,23.8,123.0,930,analysis
2403,格美,GAEMI,202407240400,202407241200,55,超强台风,24.0,122.8,930,analysis
2403,格美,GAEMI,202407240500,202407241300,55,超强台风,24.1,122.6,930,analysis
2403,格美,GAEMI,202407240600,202407241400,58,超强台风,24.1,122.5,925,analysis
2403,格美,GAEMI,202407240700,202407241500,58,超强台风,24.2,122.3,925,analysis
2403,格美,GAEMI,202407240800,202407241600,58,超强台风,24.2,122.1,925,analysis
2403,格美,GAEMI,202407240900,202407241700,58,超强台风,24.1,121.9,925,analysis
2403,格美,GAEMI,202407241000,202407241800,58,超强台风,24.0,121.8,925,analysis
2403,格美,GAEMI,202407241100,202407241900,58,超强台风,23.8,121.7,925,analysis
2403,格美,GAEMI,202407241200,202407242000,55,超强台风,23.6,121.7,930,analysis
2403,格美,GAEMI,202407241300,202407242100,55,超强台风,23.6,121.9,930,analysis
2403,格美,GAEMI,202407241400,202407242200,55,超强台风,23.8,122.0,930,analysis
2403,格美,GAEMI,202407241500,202407242300,52,超强台风,24.1,121.9,935,analysis
2403,格美,GAEMI,202407241600,202407250000,48,强台风,24.5,121.8,945,analysis
2403,格美,GAEMI,202407241700,202407250100,45,强台风,24.7,121.6,950,analysis
2403,格美,GAEMI,202407241800,202407250200,45,强台风,24.7,121.5,950,analysis
2403,格美,GAEMI,202407241900,202407250300,45,强台风,24.8,121.3,950,analysis
2403,格美,GAEMI,202407242000,202407250400,45,强台风,24.9,120.9,950,analysis
2403,格美,GAEMI,202407242100,202407250500,45,强台风,25.0,120.8,950,analysis
2403,格美,GAEMI,202407242200,202407250600,45,强台风,25.0,120.7,950,analysis
2403,格美,GAEMI,202407242300,202407250700,45,强台风,25.1,120.5,950,analysis
2403,格美,GAEMI,202407250000,202407250800,45,强台风,25.1,120.2,950,analysis
2403,格美,GAEMI,202407250100,202407250900,45,强台风,25.1,120.1,950,analysis
2403,格美,GAEMI,202407250200,202407251000,42,强台风,25.1,120.0,955,analysis
2403,格美,GAEMI,202407250300,202407251100,42,强台风,25.1,119.9,955,analysis
2403,格美,GAEMI,202407250400,202407251200,42,强台风,25.1,119.9,955,analysis
2403,格美,GAEMI,202407250500,202407251300,40,台风,25.0,119.8,960,analysis
2403,格美,GAEMI,202407250600,202407251400,38,台风,25.1,119.7,965,analysis
2403,格美,GAEMI,202407250700,202407251500,38,台风,25.1,119.7,965,analysis
2403,格美,GAEMI,202407250800,202407251600,38,台风,25.2,119.6,965,analysis
2403,格美,GAEMI,202407250900,202407251700,35,台风,25.2,119.6,970,analysis
2403,格美,GAEMI,202407251000,202407251800,35,台风,25.2,119.5,970,analysis
2403,格美,GAEMI,202407251100,202407251900,35,台风,25.2,119.4,970,analysis
2403,格美,GAEMI,202407251200,202407252000,33,台风,25.2,119.3,972,analysis
2403,格美,GAEMI,202407251300,202407252100,30,强热带风暴,25.0,119.1,974,analysis
2403,格美,GAEMI,202407251400,202407252200,30,强热带风暴,25.0,119.0,974,analysis
2403,格美,GAEMI,202407251500,202407252300,28,强热带风暴,25.1,119.0,977,analysis
2403,格美,GAEMI,202407251600,202407260000,28,强热带风暴,25.1,119.0,977,analysis
2403,格美,GAEMI,202407251700,202407260100,28,强热带风暴,25.3,118.9,977,analysis
2403,格美,GAEMI,202407251800,202407260200,28,强热带风暴,25.5,118.8,977,analysis
2403,格美,GAEMI,202407251900,202407260300,28,强热带风暴,25.6,118.7,977,analysis
2403,格美,GAEMI,202407252000,202407260400,28,强热带风暴,25.7,118.7,977,analysis
2403,格美,GAEMI,202407252100,202407260500,28,强热带风暴,25.8,118.6,977,analysis
2403,格美,GAEMI,202407252200,202407260600,28,强热带风暴,25.9,118.5,980,analysis
2403,格美,GAEMI,202407252300,202407260700,28,强热带风暴,26.0,118.5,980,analysis
2403,格美,GAEMI,202407260000,202407260800,25,强热带风暴,26.2,118.5,982,analysis
2403,格美,GAEMI,202407260100,202407260900,25,强热带风暴,26.4,118.4,982,analysis
2403,格美,GAEMI,202407260200,202407261000,25,强热带风暴,26.7,118.1,982,analysis
2403,格美,GAEMI,202407260300,202407261100,25,强热带风暴,27.0,117.9,982,analysis
2403,格美,GAEMI,202407260400,202407261200,25,强热带风暴,27.2,117.8,982,analysis
2403,格美,GAEMI,202407260500,202407261300,25,强热带风暴,27.4,117.8,982,analysis
2403,格美,GAEMI,202407260600,202407261400,25,强热带风暴,27.6,117.6,982,analysis
2403,格美,GAEMI,202407260700,202407261500,25,强热带风暴,27.6,117.6,982,analysis
2403,格美,GAEMI,202407260800,202407261600,25,强热带风暴,27.8,117.5,982,analysis
2403,格美,GAEMI,202407260900,202407261700,23,热带风暴,27.9,117.3,985,analysis
2403,格美,GAEMI,202407261000,202407261800,23,热带风暴,28.0,117.2,985,analysis
2403,格美,GAEMI,202407261100,202407261900,20,热带风暴,28.1,117.2,988,analysis
2403,格美,GAEMI,202407261200,202407262000,20,热带风暴,28.2,117.2,989,analysis
2403,格美,GAEMI,202407261300,202407262100,20,热带风暴,28.2,117.2,991,analysis
2403,格美,GAEMI,202407261400,202407262200,18,热带风暴,28.3,117.1,998,analysis
2403,格美,GAEMI,202407261500,202407262300,18,热带风暴,28.5,117.0,998,analysis
2403,格美,GAEMI,202407261600,202407270000,18,热带风暴,28.6,116.8,998,analysis
2403,格美,GAEMI,202407261700,202407270100,18,热带风暴,28.7,116.7,998,analysis
2403,格美,GAEMI,202407261800,202407270200,18,热带风暴,29.0,116.4,998,analysis
2403,格美,GAEMI,202407261900,202407270300,18,热带风暴,29.1,116.4,998,analysis
2403,格美,GAEMI,202407262000,202407270400,18,热带风暴,29.2,116.4,998,analysis
2403,格美,GAEMI,202407262100,202407270500,18,热带风暴,29.4,116.3,998,analysis
2403,格美,GAEMI,202407262200,202407270600,18,热带风暴,29.5,116.2,995,analysis
2403,格美,GAEMI,202407262300,202407270700,18,热带风暴,29.6,116.2,995,analysis
2403,格美,GAEMI,202407270000,202407270800,18,热带风暴,29.6,116.1,995,analysis
2403,格美,GAEMI,202407270100,202407270900,18,热带风暴,29.6,116.0,995,analysis
2403,格美,GAEMI,202407270200,202407271000,18,热带风暴,29.6,116.0,995,analysis
2403,格美,GAEMI,202407270300,202407271100,18,热带风暴,29.6,115.9,995,analysis
2403,格美,GAEMI,202407270400,202407271200,18,热带风暴,29.7,115.8,995,analysis
2403,格美,GAEMI,202407270500,202407271300,18,热带风暴,29.7,115.7,995,analysis
2403,格美,GAEMI,202407270600,202407271400,18,热带风暴,29.7,115.7,995,analysis
2403,格美,GAEMI,202407270700,202407271500,18,热带风暴,29.7,115.6,995,analysis
2403,格美,GAEMI,202407270800,202407271600,18,热带风暴,29.7,115.6,995,analysis
2403,格美,GAEMI,202407270900,202407271700,18,热带风暴,29.7,115.4,995,analysis
2403,格美,GAEMI,202407271000,202407271800,18,热带风暴,29.7,115.4,995,analysis
2403,格美,GAEMI,202407271100,202407271900,18,热带风暴,29.7,115.3,995,analysis
2403,格美,GAEMI,202407271200,202407272000,15,热带低压,29.8,115.2,998,analysis
2403,格美,GAEMI,202407271500,202407272300,15,热带低压,29.8,115.0,999,analysis
2403,格美,GAEMI,202407271800,202407280200,15,热带低压,29.8,114.6,999,analysis
2403,格美,GAEMI,202407272100,202407280500,12,热带低压,29.7,114.4,999,analysis
2403,格美,GAEMI,202407280300,202407281100,12,热带低压,29.6,113.7,999,forecast
2402,马力斯,MALIKSI,202405300900,202405301700,15,热带低压,17.4,112.2,1000,analysis
2402,马力斯,MALIKSI,202405301200,202405302000,15,热带低压,17.8,112.1,1000,analysis
2402,马力斯,MALIKSI,202405301500,202405302300,15,热带低压,18.5,111.9,1000,analysis
2402,马力斯,MALIKSI,202405301800,202405310200,15,热带低压,18.9,111.5,1000,analysis
2402,马力斯,MALIKSI,202405302100,202405310500,15,热带低压,18.9,111.5,1000,analysis
2402,马力斯,MALIKSI,202405310000,202405310800,15,热带低压,19.1,111.6,1000,analysis
2402,马力斯,MALIKSI,202405310300,202405311100,15,热带低压,20.3,111.9,1000,analysis
2402,马力斯,MALIKSI,202405310600,202405311400,18,热带风暴,20.3,111.9,998,analysis
2402,马力斯,MALIKSI,202405310700,202405311500,18,热带风暴,20.3,111.9,998,analysis
2402,马力斯,MALIKSI,202405310800,202405311600,18,热带风暴,20.3,111.9,998,analysis
2402,马力斯,MALIKSI,202405310900,202405311700,18,热带风暴,20.4,111.9,998,analysis
2402,马力斯,MALIKSI,202405311000,202405311800,18,热带风暴,20.5,111.9,998,analysis
2402,马力斯,MALIKSI,202405311100,202405311900,18,热带风暴,20.5,111.9,998,analysis
2402,马力斯,MALIKSI,202405311200,202405312000,18,热带风暴,20.7,111.4,998,analysis
2402,马力斯,MALIKSI,202405311300,202405312100,18,热带风暴,20.9,111.4,998,analysis
2402,马力斯,MALIKSI,202405311400,202405312200,18,热带风暴,21.1,111.5,998,analysis
2402,马力斯,MALIKSI,202405311500,202405312300,18,热带风暴,21.2,111.5,998,analysis
2402,马力斯,MALIKSI,202405311600,202406010000,18,热带风暴,21.2,111.5,998,analysis
2402,马力斯,MALIKSI,202405311700,202406010100,18,热带风暴,21.6,111.7,998,analysis
2402,马力斯,MALIKSI,202405311800,202406010200,15,热带低压,21.6,111.7,1000,analysis
2402,马力斯,MALIKSI,202405312100,202406010500,15,热带低压,22.0,111.8,1000,analysis
2402,马力斯,MALIKSI,202406010000,202406010800,15,热带低压,22.6,112.2,1000,analysis
2402,马力斯,MALIKSI,202406010300,202406011100,15,热带低压,22.8,112.4,1000,analysis
2402,马力斯,MALIKSI,202406010600,202406011400,13,热带低压,23.3,112.6,1002,analysis
2402,马力斯,MALIKSI,202406011200,202406012000,13,热带低压,24.3,113.4,1002,forecast
2402,马力斯,MALIKSI,202406011800,202406020200,12,热带低压,25.0,114.6,1003,forecast
2401,艾云尼,EWINIAR,202405240600,202405241400,12,热带低压,9.0,127.1,1003,analysis
2401,艾云尼,EWINIAR,202405240900,202405241700,12,热带低压,9.1,127.1,1003,analysis
2401,艾云尼,EWINIAR,202405241200,202405242000,12,热带低压,9.8,126.6,1003,analysis
2401,艾云尼,EWINIAR,202405241500,202405242300,15,热带低压,10.1,126.4,1002,analysis
2401,艾云尼,EWINIAR,202405241800,202405250200,15,热带低压,11.1,125.7,1002,analysis
2401,艾云尼,EWINIAR,202405242100,202405250500,15,热带低压,11.5,125.3,1002,analysis
2401,艾云尼,EWINIAR,202405250000,202405250800,15,热带低压,11.9,124.6,1002,analysis
2401,艾云尼,EWINIAR,202405250300,202405251100,15,热带低压,12.4,123.5,1002,analysis
2401,艾云尼,EWINIAR,202405250600,202405251400,15,热带低压,12.7,122.8,1002,analysis
2401,艾云尼,EWINIAR,202405250900,202405251700,15,热带低压,13.1,122.4,1002,analysis
2401,艾云尼,EWINIAR,202405251200,202405252000,15,热带低压,13.1,122.4,1002,analysis
2401,艾云尼,EWINIAR,202405251500,202405252300,15,热带低压,13.3,122.3,1002,analysis
2401,艾云尼,EWINIAR,202405251800,202405260200,15,热带低压,13.6,122.1,1002,analysis
2401,艾云尼,EWINIAR,202405252100,202405260500,15,热带低压,13.8,121.9,1002,analysis
2401,艾云尼,EWINIAR,202405260000,202405260800,15,热带低压,14.0,121.6,1000,analysis
2401,艾云尼,EWINIAR,202405260300,202405261100,18,热带风暴,14.1,121.5,998,analysis
2401,艾云尼,EWINIAR,202405260600,202405261400,23,热带风暴,14.2,121.5,990,analysis
2401,艾云尼,EWINIAR,202405260900,202405261700,25,强热带风暴,14.4,121.8,985,analysis
2401,艾云尼,EWINIAR,202405261200,202405262000,30,强热带风暴,14.9,122.2,980,analysis
2401,艾云尼,EWINIAR,202405261500,202405262300,33,台风,15.2,122.4,975,analysis
2401,艾云尼,EWINIAR,202405261800,202405270200,33,台风,15.5,122.5,975,analysis
2401,艾云尼,EWINIAR,202405262100,202405270500,38,台风,15.6,122.6,965,analysis
2401,艾云尼,EWINIAR,202405270000,202405270800,38,台风,15.8,122.8,965,analysis
2401,艾云尼,EWINIAR,202405270300,202405271100,38,台风,15.9,123.0,965,analysis
2401,艾云尼,EWINIAR,202405270600,202405271400,38,台风,16.2,123.2,965,analysis
2401,艾云尼,EWINIAR,202405270900,202405271700,38,台风,16.4,123.6,965,analysis
2401,艾云尼,EWINIAR,202405271200,202405272000,38,台风,16.7,124.2,965,analysis
2401,艾云尼,EWINIAR,202405271500,202405272300,38,台风,16.9,124.4,965,analysis
2401,艾云尼,EWINIAR,202405271800,202405280200,38,台风,17.4,124.7,965,analysis
2401,艾云尼,EWINIAR,202405272100,202405280500,35,台风,17.6,124.8,970,analysis
2401,艾云尼,EWINIAR,202405280000,202405280800,35,台风,18.3,125.3,970,analysis
2401,艾云尼,EWINIAR,202405280300,202405281100,35,台风,19.0,126.1,970,analysis
2401,艾云尼,EWINIAR,202405280600,202405281400,35,台风,19.7,126.7,970,analysis
2401,艾云尼,EWINIAR,202405280900,202405281700,35,台风,20.2,127.2,970,analysis
2401,艾云尼,EWINIAR,202405281200,202405282000,35,台风,20.5,127.7,970,analysis
2401,艾云尼,EWINIAR,202405281500,202405282300,35,台风,21.7,128.8,970,analysis
2401,艾云尼,EWINIAR,202405281800,202405290200,35,台风,22.4,129.5,970,analysis
2401,艾云尼,EWINIAR,202405282100,202405290500,35,台风,23.2,130.0,970,analysis
2401,艾云尼,EWINIAR,202405290000,202405290800,35,台风,24.0,130.6,970,analysis
2401,艾云尼,EWINIAR,202405290300,202405291100,35,台风,24.8,131.4,970,analysis
2401,艾云尼,EWINIAR,202405290600,202405291400,35,台风,25.4,132.1,970,analysis
2401,艾云尼,EWINIAR,202405290900,202405291700,35,台风,26.1,132.5,970,analysis
2401,艾云尼,EWINIAR,202405291200,202405292000,33,台风,26.5,133.2,975,analysis
2401,艾云尼,EWINIAR,202405291800,202405300200,30,强热带风暴,27.1,133.9,980,analysis
2401,艾云尼,EWINIAR,202405292100,202405300500,30,强热带风暴,27.7,134.5,980,analysis
2401,艾云尼,EWINIAR,202405300000,202405300800,28,强热带风暴,27.8,135.0,982,analysis
2401,艾云尼,EWINIAR,202405301200,202405302000,20,热带风暴,29.8,136.7,990,forecast
